hotel_id,city,province,name,address,postalcode
1,Abilene,TX,Americas Best Value Inn Suites-Abilene Mall,3165 S Danville Dr,79605
2,Abilene,TX,Western Motel,3201 S 1st St,79605
3,Abingdon,VA,Alpine Motel,882 E Main St,24210
4,Acworth,GA,Econo Lodge,4980 Cowan Rd,30101
5,Aiken,SC,Hotel Aiken,235 Richland Ave W,29801
6,Ainsworth,NE,Rodeway Inn,1124 E 4th St,69210
7,Airway Heights,WA,Days Inn & Suites Spokane Airport Airway Heights,1215 S Garfield Rd,99001
8,Akron,OH,Hilton Garden Inn Akron,1307 E Market St,44305
9,Albany,OR,Best Western Plus-prairie Inn,1100 Price Rd Se,97322
10,Albany,NY,Ramada Plaza Albany,3 Watervliet Ave. Ext.,12206
11,Albert Lea,MN,Americas Best Value Inn Albert Lea,2306 E Main St,56007
12,Albert Lea,MN,Comfort Inn,810 Happy Trails Ln,56007
13,Albert Lea,MN,Motel 6-albert Lea,2019 E Main St,56007
14,Albuquerque,NM,Best Western Plus Executive Suites,4630 Pan American Fwy NE,87109
15,Albuquerque,NM,Cinnamon Morning Bed & Breakfast,2700 Rio Grande Blvd Nw,87104
16,Albuquerque,NM,Hiway House Motel,3200 Central Ave SE,87106
17,Albuquerque,NM,Holiday Inn Express Albuquerque (I-40 Eubank),10330 Hotel Ave Ne,87123
18,Albuquerque,NM,Home2 Suites by Hilton Albuquerque/Downtown-University,1660 University Blvd NE,87102
19,Albuquerque,NM,Ramada Albuquerque East,25 Hotel Cir NE,87123
20,Alexandria,LA,Best Western Of Alexandria Inn & Suites & Conference Center,2720 N MacArthur Dr,71303
21,Alexandria,VA,"Extended Stay America Washington, D.C. - Alexandria-Landmark",205 N Breckinridge Pl,22312
22,Alexandria,VA,"Red Roof Plus+ Washington, DC - Alexandria",5975 Richmond Hwy,22303
23,Algoma,WI,Algoma Beach Motel,1500 Lake St,54201
24,Algoma,WI,Hotel Stebbins,201 Steele St,54201
25,Allentown,PA,Comfort Inn-lehigh Valley West,7625 Imperial Way,18106
26,Allentown,PA,Red Roof Inn Allentown Airport,1846 Catasauqua Rd,18109
27,Alpharetta,GA,Holiday Inn Express Alpharetta - Roswell,2950 Mansell Rd,30022
28,Alpharetta,GA,Wingate By Wyndham Alpharetta,1005 Kingswood Pl,30009
29,Alton,IL,Super 8 Alton,1800 Homer M Adams Pkwy,62002
30,Altoona,IA,Hampton Inn & Suites Altoona-des Moines,215 Adventureland Dr Nw,50009
31,Altoona,PA,Relax Inn Altoona,2752 E Pleasant Valley Blvd,16601
32,Alvarado,TX,Comfort Inn Suites,400 Village Park Dr,76009
33,Amarillo,TX,Comfort Suites,12 Western Plaza Dr,79109
34,Amarillo,TX,Holiday Inn Express & Suites Amarillo West,8330 W Amarillo Blvd,79124
35,Amarillo,TX,Wyndham Garden-amarillo,3100 W Interstate 40,79102
36,Ames,IA,"Country Inn & Suites By Carlson, Ames, IA",2605 SE 16th St,50010
37,Ames,IA,Days Inn Ames,229 S Duff Ave,50010
38,Ames,IA,Holiday Inn Ames Conference Center At Isu,2609 University Blvd,50010
39,Anaheim,CA,Best Western Courtesy Inn,1070 W Ball Rd,92802-1804
40,Anaheim,CA,Clarion Hotel Anaheim Resort,616 Convention Way,92802
41,Anaheim,CA,Eden Roc Inn & Suites,1830 S West St,92802-3407
42,Anaheim,CA,Holiday Inn Anaheim-Resort Area,1915 S Manchester Ave,92802-3802
43,Anaheim,CA,Pacific Inn,426 S Beach Blvd,92804-1861
44,Anaheim,CA,Park Vue Inn,1570 S Harbor Blvd,92802-2383
45,Anaheim,CA,Quality Inn & Suites Anaheim Maingate,871 S Harbor Blvd,92805-5157
46,Anaheim,CA,TownePlace Suites Anaheim Maingate Near Angel Stadium,1730 S State College Blvd,92806-6022
47,Anchorage,AK,Americas Best Value Inn - Executive Suite Airport,4360 Spenard Rd.,99517
48,Anchorage,AK,Aviator Hotel Anchorage,239 W 4th Ave,99501
49,Anchorage,AK,Royal Suite Lodge,3811 Minnesota Dr,99503-5679
50,Anderson,SC,Comfort Suites,118 Interstate Blvd,29621
51,Anderson,IN,Super 8 Anderson,2215 E 59th St,46013
52,Andover,MA,Courtyard Boston Andover,10 Campanelli Dr,1810
53,Ankeny,IA,Ramada-ankeny,133 Se Delaware Ave,50021
54,Ann Arbor,MI,Comfort Inn Suites,2376 Carpenter Rd,48108
55,Ann Arbor,MI,Extended Stay America - Detroit/Ann Arbor - University South,3265 Boardwalk St,48108
56,Annapolis,MD,"Country Inn & Suites By Carlson, Annapolis,",2600 Housley Rd,21401
57,Annapolis,MD,Courtyard Annapolis,2559 Riva Rd,21401
58,Annapolis,MD,Residence Inn Annapolis,170 Admiral Cochrane Dr,21401
59,Appleton,WI,Best Western Appleton Inn,3033 W College Ave,54914
60,Appleton,WI,Copperleaf Hotel,300 W College Ave,54911
61,Appleton,WI,Fairfield Inn Appleton,132 N Mall Dr,54913
62,Ardmore,OK,Hampton Inn Suites Ardmore,526 Railway Express St,73401
63,Ardmore,OK,Lexington Inn - Ardmore,136 Holiday Dr,73401
64,Ardmore,OK,Motel 6 Ardmore,120 Holiday Dr,73401
65,Arkansas City,KS,Americas Best Value Inn-arkansas City,1617 N Summit St,67005
66,Arlington,TX,Admiral Hotel,1507 N Watson Rd,76006
67,Arlington,VA,Americana Hotel,1400 Jefferson Davis Hwy,22202
68,Arlington,VA,Comfort Inn Ballston,1211 N Glebe Rd,22201
69,Arlington,VA,Embassy Suites by Hilton Crystal City National Airport,1300 Jefferson Davis Hwy,22202
70,Arlington,TX,Hampton Inn Suites Dallas-Arlington North-Entertainment District,2200 Brookhollow Plaza Dr,76006
71,Arlington,VA,"The Ritz-Carlton, Pentagon City",1250 South Hayes Street,22202
72,Arlington,VA,"The Virginian Suites, an Ascend Hotel Collection Member",1500 Arlington Blvd,22209
73,Ashburn,GA,Best Western-ashburn Inn,820 Shoneys Dr,31714
74,Asheboro,NC,Comfort Inn,825 W Dixie Dr,27205
75,Asheboro,NC,Fairfield Inn and Suites Asheboro,920 Executive Way,27203
76,Asheville,NC,Comfort Suites Outlet Center,890 Brevard Rd,28806
77,Ashland,KY,Fairfield Inn and Suites Ashland,10945 Route 60,41102
78,Ashland,VA,Quality Inn Suites,107 N Carter Rd,23005
79,Ashton,ID,Anglers Inn,112 Main St,83420
80,Atascadero,CA,Rancho Tee Motel,6895 El Camino Real,93422
81,Atascadero,CA,SpringHill Suites Paso Robles Atascadero,900 El Camino Real,93422
82,Athens,TN,Comfort Inn,2811 Decatur Pike,37303
83,Athens,GA,"Country Inn & Suites By Carlson, Athens, Ga",236 Old Epps Bridge Rd,30606
84,Athens,GA,Hampton Inn-athens,2220 W Broad St,30606
85,Atlanta,GA,Courtyard Atlanta Airport South/Sullivan Road,2050 Sullivan Rd,30337
86,Atlanta,GA,Days Inn College Park Airport Best Road,4505 Best Rd,30337
87,Atlanta,GA,Drury Inn & Suites Atlanta Airport,1270 Virginia Ave,30344-5228
88,Atlanta,GA,Extended Stay America - Atlanta - Clairmont,3115 Clairmont Rd NE,30329-1015
89,Atlanta,GA,Extended Stay America - Atlanta - Perimeter - Hammond Drive,1050 Hammond Dr,30328-5329
90,Atlanta,GA,Hampton Inn Atlanta-Perimeter Center,769 Hammond Dr,30328-6118
91,Atlanta,GA,Hampton Inn Atlanta-cumberland Mall/nw,2775 Cumberland Pkwy Se,30339
92,Atlanta,GA,Hilton Garden Inn Atlanta Downtown,275 Baker St NW,30313-1801
93,Atlanta,GA,Hyatt Place Atlanta Airport-South,1899 Sullivan Rd,30337
94,Atlanta,GA,Le Meridien Atlanta Perimeter,111 Perimeter Ctr W,30346
95,Atlanta,GA,Motel 6 Atlanta Downtown,311 Courtland St NE,30303-1212
96,Atlanta,GA,Park 75 Lounge and Terrace,75 14th St NE,30309
97,Atlanta,GA,Quality Inn & Suites,3900 Fulton Industrial Blvd SW,30336-1731
98,Atlanta,GA,SpringHill Suites Atlanta Buckhead,3459 Buckhead Loop NE,30326
99,Atlanta,GA,The St. Regis Atlanta,88 W Paces Ferry Rd NW,30305-1444
100,Atlantic City,NJ,Best Western Envoy Inn,1416 Pacific Ave,08401-8011
101,Atlantic City,NJ,Martinique Motel,3029 Pacific Ave,08401-6207
102,Atlantic City,NJ,Rodeway Inn Boardwalk,124 S North Carolina Ave,08401-7318
103,Atlantic City,NJ,Rodeway Inn Oceanview,3200 Pacific Ave,08401-6231
104,Atlantic City,NJ,The Annex at The Chelsea,111 S Chelsea Ave,08401-6222
105,Auburn,ME,Americas Best Value Inn,170 Center St,4210
106,Auburn,WA,Auburn Travelodge Inn & Suites,9 16th St Nw,98001
107,Augusta,GA,Comfort Suites,2911 Riverwest Dr,30907
108,Augusta,GA,Hampton Inn Augusta/Gordon Highway,2171 Gordon Hwy,30909
109,Augusta,GA,Super 8 Augusta,3026 Washington Rd,30907
110,Augusta,MT,The Bunkhouse Inn,122 Main St,59410
111,Aurora,CO,Riviera Motel,9100 E Colfax Ave,80010
112,Aurora,OH,The Bertram Inn & Conference Center,600 N Aurora Rd,44202
113,Austin,TX,Austin Motel,1220 S Congress Ave,78704
114,Austin,TX,Courtyard Austin South,4533 S Interstate 35,78744
115,Austin,TX,Drury Inn Suites Austin North,6711 N Interstate 35,78752
116,Austin,TX,Fairfield Inn Suites Austin-University Area,959 Reinli St,78751
117,Austin,TX,Holiday Inn Express & Suites Austin South,701 E Stassney Ln,78745
118,Austin,TX,Home2 Suites by Hilton Austin North/Near the Domain,2800 Esperanza Xing,78758
119,Austin,TX,Homewood Suites by Hilton Austin Arboretum / NW,10925 Stonelake Blvd,78759
120,Austin,TX,South Congress Hotel,1603 S Congress Ave,78704
121,Austin,TX,W Austin,200 Lavaca St,78701
122,Austinburg,OH,Hampton Inn Ashtabula,2900 G.H. Drive,44010
123,Avalon,NJ,Concord Suites,7800 Dune Dr,8202
124,Avon,CO,"The Pines Lodge, A RockResort",141 Scott Hill Rd,81620
125,Avon Park,FL,Oak Tree Inn,700 US Highway 27 S,33825
126,Baileys Harbor,WI,Kangaroo Lake Resort,2799 S Kangaroo Lake Dr,54202
127,Bainbridge Island,WA,Island Country Inn,920 Hildebrand Ln Ne,98110
128,Ballinger,TX,Ballinger Inn,2101 Hutchins Ave,76821
129,Balmorhea,TX,The Eleven Inn,504 S Main St,79718
130,Baltimore,MD,Hampton Inn and Suites Baltimore Inner Harbor,131 East Redwood Street,21202
131,Baltimore,MD,Home2 Suites by Hilton Baltimore Downtown,8 East Pleasant Street,21202
132,Baltimore,MD,Homewood Suites by Hilton Baltimore,625 South President Street,21202
133,Baltimore,MD,Hyatt Place Baltimore/Inner Harbor,511 S Central Ave,21202
134,Baltimore,MD,"Pier 5 Hotel Baltimore, Curio Collection by Hilton",711 Eastern Avenue,21202
135,Baltimore,MD,"The Brookshire Suites Inner Harbor, BW Premier Collection",120 E Lombard St,21202
136,Bar Harbor,ME,Acadia Suites,7 Cromwell Ln,4609
137,Bar Harbor,ME,Bar Harbor Motel,100 Eden St,4609
138,Bar Harbor,ME,Quality Inn,40 Kebo St,4609
139,Bar Harbor,ME,Robbins Motel,396 State Highway 3,4609
140,Bar Harbor,ME,West Street Hotel,50 West St,4609
141,Baraboo,WI,Campus Inn Motel,750 W Pine St,53913
142,Bardstown,KY,Comfort Inn,984 Frost Ave,40004
143,Barstow,CA,Desert Inn Motel,1100 E Main St,92311
144,Barstow,CA,Nites Inn,1261 W Main St,92311
145,Basalt,CO,Element Basalt - Aspen,499 Market St,81621
146,Bass Harbor,ME,Bass Harbor Cottages and Country Inn,95 Harbor Dr,4653
147,Baton Rouge,LA,Baton Rouge Marriott,5500 Hilton Ave,70808
148,Baton Rouge,LA,Best Western Plus Richmond Inn & Suites-Baton Rouge,2683 Energy Dr,70808
149,Baton Rouge,LA,Holiday Inn Express & Suites Baton Rouge East,10989 Siegen Holiday Cir,70809
150,Beachwood,OH,Courtyard Cleveland Beachwood,3695 Orange Pl,44122-4401
151,Bear,DE,Best Western Plus Newark/christiana Inn,875 Pulaski Hwy,19701
152,Beaver,WV,The Cabins At Pinehaven,242 Log Cabin Rd,25813
153,Beaver Island,MI,Emerald Isle Hotel,37985 Kings Hwy,49782
154,Beaverton,OR,Comfort Inn & Suites West,13455 SW Tualatin Valley Hwy,97005
155,Beckley,WV,Howard Johnson Express Inn-beckley,1907 Harper Rd,25801
156,Beckley,WV,Travelodge-beckley,1939 Harper Rd,25801
157,Bedford,PA,Hampton Inn Bedford,4235 Business 220,15522
158,Bedford,PA,Quality Inn Bedford,4407 Business 220,15522
159,Beebe,AR,Economy Inn,2003 W Dewitt Henry Dr,72012
160,Belfast,ME,Admiral's Ocean Inn,222 Searsport Ave,4915
161,Bend,OR,Chalet Motel,510 Se 3rd St,97702
162,Bend,OR,Hampton Inn & Suites Bend,730 Sw Columbia St,97702
163,Bend,OR,Oxford Hotel,10 Nw Minnesota Ave,97703
164,Benkelman,NE,Circle B Motor Lodge,1101 W Highway 34,69021
165,Benton,PA,Central Park Hotel,976 Central Rd,17814
166,Benton Harbor,MI,Hilton Garden Inn,1300 Cinema Way,49022
167,Bentonville,AR,Simmons Suites,3001 Ne 11th St,72712
168,Berkeley,CA,Bancroft Hotel,2680 Bancroft Way,94704
169,Bethlehem,NH,Hearthside Village Cottage Motel,1267 Main St,3574
170,Bethlehem,PA,Historic Hotel Bethlehem,437 Main St,18018
171,Bethlehem,PA,Holiday Inn Express & Suites Bethlehem,2201 Cherry Ln,18015
172,Bethlehem,PA,Residence Inn Allentown Bethlehem/Lehigh Valley Airport,2180 Motel Dr,18018
173,Bettendorf,IA,Econo Lodge Inn Suites,815 Golden Valley Dr,52722
174,Bettendorf,IA,Hilton Garden Inn Bettendorf/quad Cities,959 Middle Rd,52722
175,Beverly,MA,Beverly Garden Suites,5 Lakeview Ave,1915
176,Beverly Hills,CA,Hotel Del Flores,409 N Crescent Dr,90210
177,Beverly Hills,CA,Montage Beverly Hills,225 North Canon Drive,90210
178,Biddeford,ME,Biddeford Motel,560 Elm St,4005
179,Big Bear City,CA,Inn Der Bach Resort,1351 Midway Blvd,92314-9210
180,Big Spring,TX,Days Inn Suites Big Spring,2701 S Gregg St,79720
181,Big Spring,TX,Hampton Inn & Suites Big Spring,805 West I-20 Highway,79720
182,Billings,MT,Best Western Plus Kelly Inn Suites,4915 Southgate Dr,59101
183,Billings,MT,Econo Lodge,5425 Midland Rd,59101
184,Billings,MT,"My Place Hotel-Billings, MT",4770 King Ave E,59101
185,Billings,MT,Western Inn Motel,3311 2nd Ave N,59101
186,Birchwood,WI,Birchwood Motel,601 E Highway 48,54817
187,Birdsboro,PA,Stonersville Hotel,5701 Boyertown Pike,19508
188,Black River Falls,WI,Falls Motel,512 E 2nd St,54615
189,Blacksburg,VA,The Inn At Virginia Tech And Skelton Conference Center,901 Prices Fork Rd,24061
190,Blackwell,OK,Best Western Blackwell Inn,4545 White Ave S,74631
191,Blaine,WA,Birch Bay Get Away,8124 Birch Bay Dr.,98230
192,Bloomfield,NM,Best Western Territorial Inn Suites,415 S Bloomfield Blvd,87413
193,Bloomingdale,IL,Residence Inn Chicago Bloomingdale,295 Knollwood Dr,60108
194,Bloomington,IN,Courtyard Bloomington,310 S College Ave,47403
195,Bloomington,IN,Holiday Inn Express & Suites Bloomington,117 S Franklin Rd,47404
196,Blue Mountain Lake,NY,Hemlock Hall,Po Box 110,12812
197,Blythe,CA,Hampton Inn Suites Blythe,2011 E Donlon St,92225
198,Boise,ID,Modern Hotel & Bar,1314 W Grove St,83702
199,Boise,ID,Oxford Suites Boise,1426 S Entertainment Ave,83709
200,Boise,ID,Rodeway Inn,1115 N Curtis Rd,83706
201,Boise,ID,SpringHill Suites Boise,6325 N Cloverdale Rd,83713-1729
202,Boise,ID,SpringHill Suites Boise Parkcenter,424 E Parkcenter Blvd,83706
203,Boise City,OK,Longhorn Motel,1012 E Main St,73933
204,Bolingbrook,IL,Aloft Bolingbrook,500 Janes Ave,60440
205,Bolton Landing,NY,Huddle Bay Motel Cottages,4576 Lake Shore Dr,12814
206,Bonne Terre,MO,Red Cedar Lodge,7036 Us Highway 67,63628
207,Boone,IA,Baymont Inn & Suites Boone,1745 Se Marshall St,50036
208,Bordentown,NJ,Ramada Bordentown,1083 US Highway 206,8505
209,Bossier City,LA,Crossland Economy Studios Shreveport - Bossier City,3070 E Texas St,71111
210,Bossier City,LA,Hilton Garden Inn Shreveport Bossier City,2015 Old Minden Rd,71111
211,Boston,MA,AC Hotel by Marriott Boston Downtown,225 Albany Street,2118
212,Boston,MA,Beacon Hill Hotel and Bistro,25 Charles St,02114-4603
213,Boston,MA,Bricco Suites,241 Hanover St,02113-2322
214,Boston,MA,Embassy Suites by Hilton Boston at Logan Airport,207 Porter Street,02128-2213
215,Boston,MA,Harborside Inn,185 State St,2109
216,Boston,MA,The Boxer,107 Merrimac Street,2114
217,Boston,MA,The Charlesmark Hotel,655 Boylston Street,2116
218,Boston,MA,The College Club of Boston,44 Commonwealth Ave,02116-3104
219,Boston,MA,"The Ritz-Carlton, Boston",10 Avery Street,2111
220,Boston,MA,W Boston,100 Stuart Street,2116
221,Boston,MA,XV Beacon,15 Beacon St,02108-2902
222,Boulder,CO,Rodeway Inn & Suites Boulder Broker,555 30th St,80303
223,Bourbonnais,IL,Fairfield Inn Kankakee Bourbonnais,1550 State Route 50,60914
224,Bow,NH,Hampton Inn Concord/Bow,515 South St,3304
225,Bowling Green,KY,Baymont Inn & Suites Bowling Green,1919 Mel Browning St,42104
226,Bowling Green,KY,"Country Inn & Suites By Carlson, Bowling Green, KY",535 Wall St,42103
227,Bowling Green,KY,Drury Inn Bowling Green,3250 Scottsville Rd,42104
228,Bowling Green,KY,Hampton Inn Bowling Green,233 Three Springs Rd,42104
229,Bowling Green,KY,Hilton Garden Inn Bowling Green,1020 Wilkinson Trce,42103
230,Bowling Green,KY,Quality Inn,4646 Scottsville Rd I65 At Exit 22,42104
231,Bozeman,MT,Fairfield Inn Bozeman,828 Wheat Dr,59715
232,Bozeman,MT,Ramada Bozeman,2020 Wheat Dr,59715
233,Bozeman,MT,Rodeway Inn,805 Wheat Dr,59715
234,Bradenton,FL,Hampton Inn & Suites Bradenton Downtown Historic District,309 10th St W,34205
235,Bradenton Beach,FL,Island Time Inn,105 Bridge St,34217
236,Bradenton Beach,FL,Pelican Post Motel,202 1st St N,34217
237,Bradford,PA,Heritage Suites,139 Minard Run Rd,16701
238,Braidwood,IL,Braidwood Motel,120 N Washington St,60408
239,Brandon,FL,Behind The Fence Bed & Breakfast Inn,1400 Viola Dr,33511
240,Bremen,GA,Hampton Inn Bremen-I-20 (Carrollton Area),28 Price Creek Rd,30110
241,Brentwood,CA,Hampton Inn Brentwood,7605 Brentwood Blvd,94513
242,Brentwood,TN,Hilton Garden Inn Nashville Brentwood,217 Centerview Dr,37027
243,Brentwood,TN,Residence Inn Nashville Brentwood,206 Ward Cir,37027
244,Brewster,MA,Brewster By The Sea,716 Main St,02631-1035
245,Bridgeport,MI,Baymont Inn & Suites Bridgeport/frankenmuth,6460 Dixie Hwy,48722
246,Brighton,CO,Holiday Inn Express & Suites Denver Northeast - Brighton,2180 S Medical Center Dr,80601
247,Bristol,VA,Comfort Inn,2368 Lee Hwy,24202
248,Broken Arrow,OK,Best Western Kenosha Inn,1200 E Lansing St,74012
249,Broken Bow,OK,Beavers Bend Lodging,6261 N US Highway 259,74728
250,Brookeland,TX,The Lodge Hotel,2376 Wingate Blvd,75931
251,Brookings,SD,Hampton Inn & Suites Brookings,3017 Lefevre Dr,57006
252,Brookings,OR,Ocean Suites,16045 Lower Harbor Rd,97415
253,Brookline,MA,Longwood Inn,123 Longwood Ave,2446
254,Brooklyn,NY,Comfort Inn Red Hook,17 Seabring St,11231
255,Brooklyn,NY,Hotel Luxe,1420 Atlantic Ave,11216
256,Brooklyn,NY,Hotel Prince Spafford,315 93rd St,11209
257,Brooklyn,NY,Kings Hotel,820 39th St,11232
258,Brooklyn,NY,hotel le bleu,370 4th Ave,11215
259,Brookshire,TX,Executive Inn,217 Waller Ave,77423
260,Brooksville,FL,Quality Inn,9373 Cortez Blvd,34613
261,Broomfield,CO,SpringHill Suites Denver North/Westminster,6845 W 103rd Ave,80021
262,Brownsburg,IN,Hampton Inn & Suites Indianapolis/brownsburg,41 Maplehurst Dr,46112
263,Brownsville,TN,Rodeway Inn,110 Sunny Hill Cv,38012
264,Buena Park,CA,Motel 6,7051 Valley View St,90620
265,Buffalo,NY,Aloft Buffalo Airport,4219 Genesee St,14225
266,Buffalo,WY,Blue Gables Motel,662 N Main St,82834
267,Buffalo,NY,Hilton Garden Inn Buffalo Downtown,10 Lafayette Sq,14203
268,Buffalo,NY,Home2 Suites by Hilton Buffalo Airport/Galleria Mall,1999 Walden Ave,14225
269,Buffalo,WY,Klondike Ranch,386 Crazy Woman Canyon Rd,82834
270,Buffalo,NY,Lofts on Pearl,92 Pearl St,14202
271,Buford,GA,Hampton Inn Atlanta-Mall Of Georgia,3240 Buford Dr,30519
272,Burleson,TX,Best Western Plus Burleson Inn Suites,516 Memorial Plz,76028
273,Burnet,TX,Arrowhead Motel,100 N West St,78611
274,Burnet,TX,Best Western Post Oak Inn,908 Buchanan Dr,78611
275,Butte,MT,Holiday Inn Express & Suites Butte,2609 Harrison Ave,59701
276,Butte,MT,La Quinta Inn & Suites Butte,1 Holiday Park,59701
277,Butte,MT,Quality Inn Suites,2100 Cornell Ave,59701
278,Byron Center,MI,Baymont Inn Suites Grand Rapids SW/Byron Center,8282 Pfeiffer Farms Dr SW,49315
279,Cabazon,CA,Morongo Casino Resort & Spa,49500 Seminole Dr,92230
280,Calistoga,CA,Best Western Plus Stevenson Manor,1830 Lincoln Ave,94515
281,Calistoga,CA,Hotel Damici Ristorante,1440 Lincoln Ave,94515
282,Camarillo,CA,Hampton Inn & Suites Camarillo,50 W Daily Dr,93010
283,Camarillo,CA,Residence Inn Camarillo,2912 Petit St,93012
284,Cambridge,MA,The Charles Hotel,1 Bennett St,2138
285,Canal Winchester,OH,Best Western Canal Winchester Inn - Columbus South East,6323 Prentiss School Pl,43110
286,Cannon Beach,OR,Harrison Street Inn,987 S Hemlock St,97110
287,Canton,MI,Hampton Inn Suites Detroit-Canton,1950 N Haggerty Rd,48187
288,Canton,OH,Home2 Suites by Hilton Canton,5244 Broadmoor Cir NW,44709
289,Canton,TX,Quality Inn Suites Canton,2406 N Trade Days Blvd,75103
290,Canyon,TX,Best Western Palo Duro Canyon Inn Suites,2801 4th Ave,79015
291,Cape Coral,FL,Dolphin Key Resort,1502 Miramar St,33904
292,Cape May,NJ,The Star Inn,29 Perry St,8204
293,Captain Cook,HI,Pomaika'i Lucky Farm BB,835465 Mamalahoa Hwy,96704
294,Captiva,FL,"Jensen's ""On the Gulf""",15300 Captiva Dr,33924
295,Carlisle,PA,"Country Inn & Suites By Carlson, Carlisle, PA",1529 Commerce Ave,17015
296,Carlisle,PA,Pike Motel,1121 Harrisburg Pike,17013
297,Carlisle,PA,Rodeway Inn,1239 Harrisburg Pike,17013
298,Carmel,IN,Hampton Inn Indianapolis/carmel,12197 N Meridian St,46032
299,Carmel,IN,Holiday Inn Express & Suites Carmel-north Indianapolis,15131 Thatcher Ln,46033
300,Carmel,IN,Residence Inn Indianapolis Carmel,11895 N Meridian St,46032
301,Carmel Valley,CA,Blue Sky Lodge,10 Flight Rd,93924
302,Carpinteria,CA,Holiday Inn Express & Suites Carpinteria,5606 Carpinteria Ave,93013
303,Carrollton,GA,Americas Best Value Inn Suites Carrollton,1111 Bankhead Hwy,30117
304,Carrollton,KY,Hampton Inn Carrollton,7 Slumber Ln,41008
305,Cartersville,GA,Lake Allatoona Inn,632 Old Allatoona Rd Se,30121
306,Cary,NC,Comfort Suites-regency Park,350 Ashville Ave,27518
307,Cass,WV,Bear Creek Lodge,Route 66,24927
308,Cassville,WI,Schleichers Landing,7110 Closing Dam Rd,53806
309,Cave City,KY,Motel 6 Cave City Ky,102 Gardner Ln,42127
310,Ca√±on City,CO,Americas Best Value Inn & Suites Canon City,1925 Fremont Dr,81212
311,Cedar City,UT,M-Star Cedar City,190 S Main St,84720
312,Cedar Rapids,IA,Best Western Cooper's Mill Hotel,100 F Ave NW,52405
313,Cedar Rapids,IA,Hampton Inn & Suites Cedar Rapids North,1130 Park Pl Ne,52402
314,Cedar Rapids,IA,Quality Inn,4747 1st Ave Se,52402
315,Celina,OH,Celina Motel,225 S Main St,45822
316,Center,TX,Best Western Plus Classic Inn Suites,210 Moffitt Dr,75935
317,Center Rutland,VT,Jen's Motel,1122 Business Route 4,5736
318,Chadron,NE,Best Western West Hills Inn,1100 W 10th St,69337
319,Chalmette,LA,Best Western Plus Chalmette Hotel,3400 Paris Rd,70043
320,Chama,NM,Little Creel Resort,2631 S. Hwy 84-64,87520
321,Chandler,AZ,Best Western Inn of Chandler,950 N Arizona Ave,85225
322,Chandler,AZ,Redwood Motel,470 N Arizona Ave,85225
323,Chandler,AZ,SpringHill Suites Phoenix Chandler/Fashion Center,225 N Metro Blvd,85226-3194
324,Chantilly,VA,Hyatt Place Chantilly Dulles Airport South,4994 Westone Plz,20151
325,Chantilly,VA,Staybridge Suites Chantilly Dulles Airport,3860 Centerview Dr,20151
326,Chapel Hill,NC,"Hampton Inn & Suites Chapel Hill/Durham, Area",6121 Farrington Rd,27517
327,Chapel Hill,NC,"The Siena Hotel, Autograph Collection",1505 E Franklin St,27514
328,Charleston,SC,Holiday Inn Express Charleston Dwtn - Ashley River,250 Spring St,29403
329,Charleston,SC,Indigo Inn,1 Maiden Ln,29401
330,Charleston,SC,King Charles Inn,237 Meeting St,29401
331,Charleston,WV,Sleep Inn,2772 Pennsylvania Ave,25302
332,Charleston,SC,The Mills House Wyndham Grand Hotel,115 Meeting St,29401
333,Charleston,SC,The Restoration,75 Wentworth St,29401
334,Charlevoix,MI,Maple Leaf Motel,1414 Bridge St,49720
335,Charlotte,MI,Americas Best Value Inn - Charlotte,828 E Shepherd St,48813
336,Charlotte,NC,Drury Inn & Suites Charlotte Northlake,6920 Northlake Mall Dr,28216
337,Charlotte,NC,Extended Stay America Charlotte - Pineville - Pineville Matthews Rd.,8405 Pineville Matthews Rd,28226
338,Charlotte,NC,Hyatt Place Charlotte Airport/lake Pointe,4119 Southstream Blvd,28217
339,Charlotte,NC,Sonesta Es Suites Charlotte,7925 Forest Pine Dr,28273
340,Charlottesville,VA,Courtyard Charlottesville North,638 Hillsdale Dr,22901
341,Charlottesville,VA,Hyatt Place Charlottesville,2100 Bond St,22901
342,Chattanooga,TN,Courtyard Chattanooga Downtown,200 Chestnut St,37402
343,Chattanooga,TN,Economy Inn,5505 Brainerd Rd,37411
344,Chattanooga,TN,MainStay Suites,7030 Amin Dr,37421
345,Chattanooga,TN,Quality Inn Suites,3540 Cummings Hwy,37419
346,Chebeague Island,ME,Chebeague Island Inn,61 South Rd,4017
347,Cherokee,NC,Comfort Suites,1223 Tsali Blvd,28719
348,Cherokee,NC,Pioneer Motel and Cottages,Po Box 397,28719
349,Cherokee,NC,Stonebrook Lodge,436 Paint Town Rd,28719
350,Chesapeake,VA,Comfort Inn & Suites,3355 S Military Hwy,23323
351,Chesapeake,VA,Comfort Suites,1550 Crossways Blvd,23320
352,Chesapeake,VA,Econo Lodge,2222 S Military Hwy,23320
353,Chesapeake,VA,SpringHill Suites Chesapeake Greenbrier,1446 Crossways Blvd,23320
354,Cheyenne,WY,Atlas Motel,1524 W Lincolnway,82001
355,Cheyenne,WY,Comfort Inn Suites,201 W Fox Farm Rd,82007
356,Chicago,IL,AC Hotel Chicago Downtown,630 North Rush Street,60611
357,Chicago,IL,Ace Hotel Chicago,311 North Morgan Street,60611
358,Chicago,IL,Best Western Plus Hawthorne Terrace Hotel,3434 N Broadway Ave,60657
359,Chicago,IL,Central Loop Hotel,111 W Adams St,60603
360,Chicago,IL,Clarion Inn & Suites,7353 S Cicero Ave,60629
361,Chicago,IL,Freehand Chicago,19 E Ohio St,60611-2707
362,Chicago,IL,Hampton Inn Chicago Downtown/N Loop/Michigan Ave,68 E Wacker Pl,60601
363,Chicago,IL,Hotel Lincoln,1816 N Clark St,60614
364,Chicago,IL,Kinzie Hotel,20 West Kinzie Street,60654
365,Chicago,IL,Moxy Chicago Downtown,530 N LaSalle Dr,60654
366,Chicago,IL,Quality Inn Midway Airport,7353 S Cicero Ave,60629-5816
367,Chicago,IL,River Hotel,75 E Wacker Dr,60601-3756
368,Chicago,IL,Rodeway Inn,5952 N Lincoln Ave,60659-3739
369,Chicago,IL,The Villa Toscana,3447 N Halsted St,60657-2414
370,Chicago,IL,The Westin Chicago River North,320 North Dearborn Street,60654-5010
371,Chicago,IL,Virgin Hotels Chicago,203 N Wabash Ave,60601
372,Chicago,IL,dana hotel and spa,660 North State Street,60654
373,Chillicothe,OH,Best Western Adena Inn,1250 N Bridge St,45601
374,Chimney Rock,NC,Carter Lodge,273 Main St,28720
375,Chimney Rock,NC,Esmeralda Inn,910 Main St,28720
376,Chincoteague Island,VA,Comfort Suites,4195 Main St,23336
377,Chincoteague Island,VA,Days Inn Chincoteague Island,7020 Maddox Blvd,23336
378,Cincinnati,OH,Hampton Inn Suites Cincinnati/Uptown-University Area,3024 Vine St,45219
379,Cincinnati,OH,Millennium Hotel Cincinnati,150 W 5th St,45202
380,Cincinnati,OH,Springhill Suites Cincinnati Midtown,610 Eden Park Dr,45202
381,Cisco,TX,Executive Inn,301 E Interstate 20,76437
382,Claremont,NH,Rodeway Inn,24 Sullivan St,3743
383,Clarksville,TN,Home2 Suites by Hilton Clarksville/Ft. Campbell,3020 Mr C Dr,37040
384,Clarksville,TN,Mainstay Suites-fort Campbell,115 Fair Brook Pl,37040
385,Clarksville,TN,Westgate Inn & Suites,803 N 2nd St,37040
386,Clear Lake,IA,Americas Best Value Inn Clear Lake,1306 N 25th St,50428
387,Clearfield,PA,Best Western Plus Clearfield,14424 Clearfield Shawville Hwy,16830
388,Clearwater,FL,Comfort Inn & Suites,3910 Ulmerton Rd,33762
389,Clearwater,FL,Orange Motel,1736 Gulf To Bay Blvd,33755
390,Clearwater Beach,FL,Chart House Suites On Clearwater Bay,850 Bayway Blvd,33767
391,Clearwater Beach,FL,Echo Sails Motel,216 Hamden Dr,33767
392,Clearwater Beach,FL,Sea Captain Resort On The Bay,40 Devon Dr,33767
393,Clemson,SC,Courtyard by Marriott Clemson,201 Canoy Ln,29631
394,Clermont,FL,Holiday Inn Express Clermont,1810 S Highway 27,34711
395,Cleveland,OH,Aloft Cleveland Downtown,1111 W 10th St,44113
396,Cleveland,OH,Hilton Cleveland Downtown,100 Lakeside Ave E,44114
397,Cleveland,TN,Mountain View Inn,2400 Executive Park NW,37312
398,Clinton,NC,Comfort Inn,1412 Sunset Ave,28328
399,Clinton,TN,Hampton Inn Knoxville/Clinton I-75,105 Hillvale Rd,37716
400,Clinton,OK,Holiday Inn Express Suites Clinton,2000 Boulevard of Champions,73601
401,Coal Center,PA,Hampton Inn Suites California University-Pittsburgh,200 Technology Dr,15423
402,Coalinga,CA,Laura Lodge,201 S 5th St,93210
403,Cocoa Beach,FL,Sea-Aire Motel,181 N Atlantic Ave,32931
404,Coeur d'Alene,ID,Hampton Inn & Suites Coeur d'Alene,1500 W Riverstone Dr,83814-5760
405,Coeur d'Alene,ID,Japan House Suites,2113 E Sherman Ave,83814
406,Coeur d'Alene,ID,Shilo Inn Suites - Coeur d'Alene,702 W Appleway Ave,83814-9338
407,Coeur d'Alene,ID,SpringHill Suites Coeur d'Alene,2250 W Seltice Way,83814
408,Colchester,VT,Quality Inn Colchester - Burlington,84 S Park Dr,5446
409,Collinsville,IL,Drury Inn St Louis Collinsville,602 N Bluff Rd,62234
410,Colorado Springs,CO,The Academy Hotel Colorado Springs,8110 N Academy Blvd,80920
411,Columbia,SC,Best Western Plus Columbia North East,7525 Two Notch Rd,29223
412,Columbia,TN,Comfort Inn,1544 Bear Creek Pike,38401
413,Columbia,MD,Courtyard Columbia,8910 Stanford Blvd,21045
414,Columbia,MD,Hampton Inn Suites Columbia/South,7045 Minstrel Way,21046
415,Columbia,MD,Sonesta ES Suites Columbia Baltimore,8844 Columbia 100 Pkwy,21045
416,Columbia,TN,Super 8 Columbia,1554 Bear Creek Pike,38401
417,Columbus,OH,Comfort Suites Airport,4270 Sawyer Rd,43219
418,Columbus,OH,Comfort Suites East Broad At 270,70 Chris Perry Ln,43213
419,Columbus,OH,Crowne Plaza Columbus-Downtown,33 E Nationwide Blvd,43215
420,Columbus,OH,Days Inn Columbus Airport,750 Stelzer Rd,43219
421,Columbus,OH,Four Points by Sheraton Columbus Ohio Airport,3030 Plaza Properties Blvd,43219
422,Columbus,MT,Git's Big Sky Motel,740 E Pike Ave,59019
423,Columbus,GA,Hampton Inn Columbus/South-Fort Benning,2870 S Lumpkin Rd,31903
424,Columbus,OH,Hampton Inn Suites Columbus/University Area,3160 Olentangy River Rd,43202
425,Columbus,OH,Holiday Inn Express & Suites Columbus - Polaris Parkway,8670 Orion Pl,43240
426,Columbus,OH,Holiday Inn Express & Suites Columbus Univ Area - Osu,3045 Olentangy River Rd,43202
427,Columbus,GA,Microtel Inn Suites by Wyndham Columbus/Near Fort Benning,3930 Saint Marys Rd,31907
428,Concord,NH,Comfort Inn,71 Hall St,3301
429,Conrad,MT,Northgate Motel,5 N Main St,59425
430,Conroe,TX,Hampton Inn Suites Conroe I45 North,2242 Stoneside Rd,77303
431,Cooksburg,PA,Gateway Lodge,14870 Route 36,16217
432,Cooper Landing,AK,Sunrise Inn,Mile 45 Sterling Hwy,99572
433,Cooperstown,NY,Mohican Motel,90 Chestnut St,13326
434,Copper Harbor,MI,North Port Motel,258 Brockway Ave,49918
435,Coralville,IA,Best Western Cantebury Inn & Suites,704 1st Ave,52241
436,Coralville,IA,Econo Lodge,815 1st Ave,52241
437,Coralville,IA,MainStay Suites,2491 Holiday Rd,52241
438,Corbin,KY,Fairfield Inn Corbin,25 Highway 770,40701
439,Cornersville,TN,Econo Lodge,3731 Pulaski Hwy,37047
440,Corning,AR,Parkview Motel,1617 W Main St,72422
441,Coronado,CA,1906 Lodge At Coronado Beach,1060 Adella Ave,92118
442,Corpus Christi,TX,Americas Best Value Inn-corpus Christi North/airport,910 Corn Product Rd,78409
443,Corrales,NM,The Chocolate Turtle Bed & Breakfast,1098 W Meadowlark Ln,87048
444,Corsicana,TX,La Quinta Inn & Suites Corsicana,2020 Regal Dr,75109
445,Cortez,CO,National 9 Inn-sand Canyon,301 W Main St,81321
446,Cortez,CO,Travelodge Cortez,1120 E Main St,81321
447,Corvallis,OR,Econo Lodge,935 NW Garfield Ave,97330
448,Corvallis,OR,University Inn Corvallis,350 Sw 4th St,97333
449,Corydon,IN,Comfort Inn Corydon,115 Sky Park Dr NE,47112
450,Cosby,TN,The Cub Motel,4350 Cosby Hwy,37722
451,Coshocton,OH,Roscoe Motor Inn,421 S Whitewoman St,43812
452,Costa Mesa,CA,Ramada Costa Mesa/Newport Beach,1680 Superior Ave,92627
453,Cotulla,TX,Cotulla Motel,301 N Main St,78014
454,Crawfordsville,IN,Super 8 Crawfordsville,1020 Corey Blvd,47933
455,Creedmoor,NC,Econo Lodge,2574 W Lyon Station Rd,27522
456,Crested Butte,CO,The Inn At Crested Butte,510 Whiterock Ave,81224
457,Crestview,FL,Baymont Inn & Suites Crestview,4040 S Ferdon Blvd,32536
458,Crestview,FL,Econo Lodge,3101 S Ferdon Blvd,32536
459,Culver,IN,Culver Cove Resort,319 E Jefferson St,46511-1507
460,Culver City,CA,Westchester Hotel,5630 Sawtelle Blvd,90230
461,Dalhart,TX,Western Skies Motor Inn,623 Denver Ave,79022
462,Dallas,OR,Best Western Dallas Inn & Suites,250 Orchard Dr,97338
463,Dallas,TX,Hampton Inn & Suites Dallas/Cockrell Hill I-30,1718 N Cockrell Hill Rd,75211-1313
464,Danbury,CT,Hat City Tavern,18 Old Ridgebury Rd,6810
465,Danbury,CT,Quality Inn & Suites,78 Federal Rd,6810
466,Danville,PA,Best Western Danville Inn,79 Old Valley School Rd,17821
467,Danville,IL,Best Western Regency Inn,360 Eastgate Dr,61834
468,Danville,IL,Best Western Riverside Inn,57 S Gilbert St,61832
469,Danville,KY,Comfort Suites,864 Ben Ali Dr,40422
470,Danville,VA,Innkeeper Danville West,3020 Riverside Dr,24541
471,Danville,PA,Pine Barn Inn,1 Pine Barn Pl,17821
472,Danville,IL,Sleep Inn And Suites Danville,361 Lynch Dr,61834
473,Davenport,IA,Days Inn,3202 E Kimberly Rd,52807
474,Davenport,FL,Hampton Inn Orlando-Maingate South,44117 Highway 27,33897
475,Davis,OK,Turner Falls Inn,5144 Highway 77 S,73030
476,Dayton,TN,Best Western Dayton,7835 Rhea County Hwy,37321
477,Dayton,OH,Drury Inn Suites Dayton North,6616 Miller Ln,45414
478,Dayton,OH,Hawthorn Suites By Wyndham Dayton North,7070 Poe Ave,45414
479,Dayton,OH,Red Roof Inn Dayton North Airport,7370 Miller Ln,45414
480,Daytona Beach,FL,Cozy Villa Motel,502 Ridgewood Ave,32117
481,Daytona Beach,FL,Daytona Shores Inn And Suites,3221 S Atlantic Ave,32118
482,Daytona Beach,FL,Famous Shores Motel,3738 S Atlantic Ave,32118
483,Daytona Beach,FL,Grand Prix Motel,2015 S Atlantic Ave,32118
484,DeKalb,IL,Red Roof Inn & Suites Dekalb,1212 W Lincoln Hwy,60115
485,DeLand,FL,Hampton Inn Suites Deland,20 Summit Oak Pl,32720
486,DeLand,FL,Riviera Resort & Marina,2760 Botts Landing Rd,32720
487,DeRidder,LA,Best Western Plus Deridder Inn & Suites,1055 N Pine St,70634
488,Decatur,IN,Quality Inn,1201 S 13th St,46733
489,Deer Park,TX,Hampton Inn Houston Deer Park Ship Area,1450 Center St,77536
490,Deerfield,IL,Courtyard Chicago Deerfield,800 Lake Cook Rd,60015
491,Deerfield,IL,Residence Inn Chicago Deerfield,530 Lake Cook Rd,60015
492,Defiance,OH,Holiday Inn Express Hotel & Suites Defiance,1148 Hotel Dr,43512
493,Delavan,WI,Super 8 Delavan Near Lake Geneva,518 Borg Rd,53115
494,Deming,NM,Holiday Inn Express Suites Deming Mimbres Valley,3801 E Cedar St,88030
495,Denton,TX,Best Western Plus Denton Inn & Suites,2910 W University Dr,76201
496,Denton,TX,Best Western Premier Crown Chase Inn & Suites,2450 Brinker Rd,76208
497,Denver,CO,Aloft Denver Downtown,800 15th St,80202
498,Denver,CO,Crossland Economy Studios Denver - Thornton,8750 Grant St,80229
499,Denver,CO,Hampton Inn & Suites Denver Ap Gateway Park,4310 Airport Way,80239
500,Denver,CO,Hampton Inn & Suites Denver Tech Center,5001 S Ulster St,80237
501,Denver,CO,Primrose Motel,5450 Federal Blvd,80221
502,Denver,CO,Red Lion Inn Suites Denver Airport,7010 Tower Rd,80249
503,Des Moines,IA,Quality Inn,4950 NE 14th St,50313
504,Des Plaines,IL,Best Western at OHare,10300 W Higgins Rd,60018
505,Des Plaines,IL,Hampton Inn & Suites Rosemont Chicago O'hare,9480 W Higgins Rd,60018
506,Desert Hot Springs,CA,Aqua Soleil Hotel And Mineral Water Spa,14500 Palm Dr,92240
507,Destin,FL,Extended Stay America Destin - US 98 - Emerald Coast Pkwy.,4615 Opa Locka Ln,32541
508,Detroit,MI,Aloft Detroit at The David Whitney,1 Park Ave,48226
509,Detroit,MI,Sound Board,2901 Grand River Ave,48201
510,Dickinson,ND,Hampton Inn & Suites Dickinson,110 14th St W,58601
511,Dickinson,ND,My Place Hotel-dickinson Nd,2431 3rd Ave W,58601
512,Dickson,TN,Econo Lodge Inn and Suites,1025 E Christi Dr,37055
513,Dillon,MT,Best Western Paradise Inn,650 N Montana St,59725
514,Dodge City,KS,Comfort Suites-dodge City,2700 W Wyatt Earp Blvd,67801
515,Dodge City,KS,Hampton Inn & Suites Dodge City,4002 W Comanche St,67801
516,Doswell,VA,Best Western Kings Quarters,16102 Theme Park Way,23047
517,Douglas,WY,Sleep Inn Suites,508 Cortez Dr,82633
518,Dover,DE,Dover Inn,428 N Dupont Hwy,19901
519,Dover,DE,Super 8-dover,348 N Dupont Hwy,19901
520,Dover Plains,NY,Foothills Motel,3234 Route 22,12522
521,Downsville,NY,Downsville Motel,6945 River Road corner Routes 30 & 206,13755
522,DuPont,WA,Hampton Inn & Suites Dupont,800 Station Dr,98327
523,Dublin,OH,Cloverleaf Residence Suites,4130 Tuller Rd,43017
524,Dublin,OH,Quality Inn Suites,3950 Tuller Rd,43017
525,Dublin,VA,Sleep Inn Suites,5094 State Park Rd,24084
526,Dubois,WY,Super 8 Dubois,1412 Warm Springs Dr,82513
527,Duluth,GA,Extended Stay America Atlanta - Duluth,3430 Venture Pkwy,30096
528,Duncan,SC,Hampton Inn Suites Greenville/Spartanburg I-85,108 Spartangreen Blvd,29334
529,Duncansville,PA,Comfort Inn Duncansville - Altoona,130 Patchway Rd,16635
530,Dunedin,FL,Best Western Plus Yacht Harbor Inn,150 Marina Plz,34698
531,Dunkirk,NY,Best Western Dunkirk Fredonia Inn,3912 Vineyard Dr,14048
532,Dunn,NC,Comfort Inn,131 Bud Hawkins Rd,28334
533,Durham,NC,Aloft Durham Downtown,345 Blackwell St,27701
534,Durham,NC,Homewood Suites By Hilton Raleigh-durham Ap/research Triangle,4603 Central Park Dr,27703
535,Durham,NC,Millennium Hotel Durham,2800 Campus Walk Ave,27705
536,Durham,NC,Quality Inn Suites Medical Park,3710 Hillsborough Rd,27705
537,Durham,NC,Red Roof Inn Durham-duke University Medical Center,1915 N Pointe Dr,27705
538,East Dover,VT,Cooper Hill Inn,117 Cooper Hill Rd,5341
539,East Peoria,IL,Best Western Plus Peoria,300 Eastlight Ct,61611
540,East Sandwich,MA,Sandy Neck Motel,669 Route 6a,02537-1472
541,East Springfield,NY,Otsego Motel,5762 Us Highway 20,13333
542,East Syracuse,NY,Americas Best Value Inn-east Syracuse,6608 Old Collamer Rd,13057
543,East Syracuse,NY,Extended Stay America Syracuse - Dewitt,6630 Old Collamer Rd,13057
544,East Tawas,MI,Tawas Bay Beach Resort,300 E Bay St,48730
545,Easton,MD,Best Western Plus Easton Inn Suites,8708 Alicia Dr,21601
546,Easton,MD,Hampton Inn Easton,8058 Ocean Gtwy,21601
547,Eastsound,WA,Orcas Suites At Rosario,1600 Rosario Rd,98245
548,Eau Claire,WI,Best Western Plus Eau Claire Conference Center,3340 Mondovi Rd,54701
549,Edgartown,MA,Harborside Inn,3 S Water St,2539
550,Edgewater,FL,Best Western-edgewater Inn,1730 S Ridgewood Ave,32132
551,Edison,NJ,Hilton Garden Inn Edison/Raritan Center,50 Raritan Center Pkwy,8837
552,Edison,NJ,Quality Inn,21 Cortlandt St,8837
553,Edmond,OK,Home2 Suites by Hilton Edmond,321 Meline Dr,73034
554,El Cajon,CA,Best Western Continental Inn,650 N Mollison Ave,92021-5618
555,El Centro,CA,Super 8-el Centro,1575 Ocotillo Dr,92243
556,El Paso,TX,Best Western Sunland Park Inn,1045 Sunland Park Dr,79922
557,El Paso,TX,Comfort Suites,949 Sunland Park Dr,79922
558,El Paso,TX,Quality Inn Suites Airport,6099 Montana Ave,79925
559,El Paso,TX,Staybridge Suites El Paso Airport Area,6680 Gateway Blvd E,79915
560,El Segundo,CA,Travelodge-lax South,1804 E Sycamore Ave,90245
561,Elgin,IL,Comfort Suites-elgin,2480 Bushwood Dr,60124
562,Elizabeth,NJ,Hampton Inn Newark-Airport,1128 Spring St,7201
563,Elk City,OK,Motel 6 Jaiden & Jiya LLC,2604 E Highway 66,73644
564,Elk Grove Village,IL,Days Inn Elk Grove Village/chicago/ohare Airport West,1920 E Higgins Rd,60007
565,Elk Grove Village,IL,Wyndham Garden Elk Grove Village/o'hare,2550 Landmeier Rd,60007
566,Elkhart,IN,Fairway Inn,115 Northpointe Blvd,46514
567,Elkhorn,WI,Hampton Inn-elkhorn,40 W Hidden Trl,53121
568,Elkins,WV,Hampton Inn Elkins,480 Plantation Dr,26241
569,Elko,NV,American Inn,500 W Oak St,89801
570,Elko,NV,Thunderbird Motel,345 Idaho St,89801
571,Elkridge,MD,Comfort Suites Columbia Gateway,7146 Old Waterloo Rd,21075
572,Elkton,MD,Motel 6,223 Belle Hill Rd,21921
573,Ellendale,ND,Prairie Winds Motel,70 5th St N,58436
574,Ellis,KS,Days Inn-ellis,205 Washington St,67637
575,Elsah,IL,The Green Tree Inn,15 Mill St,62028
576,Emerald Isle,NC,Bogue Inlet Motel,120 Bogue Inlet Dr,28594
577,Emmetsburg,IA,Americas Best Value Inn Suburban Motel,3635 450th Ave,50536
578,Enterprise,OR,The Wilderness Inn,301 W North St,97828
579,Erie,PA,Avalon Hotel & Conference Center,16 W 10th St,16501
580,Erie,PA,Hampton Inn Erie-South,8050 Old Oliver Rd,16509
581,Erie,PA,"Home2 Suites by Hilton Erie, PA",8035 Oliver Rd,16509
582,Erie,PA,Quality Inn Suites Conference Center,8040 Perry Hwy,16509
583,Erie,PA,Wingate By Wyndham Erie,8060 Old Oliver Rd,16509
584,Erlanger,KY,Residence Inn Cincinnati Airport,2811 Circleport Dr,41018-1082
585,Escalante,UT,Circle D Motel,475 W Main St,84726-7700
586,Escanaba,MI,Econo Lodge,921 N Lincoln Rd,49829
587,Estes Park,CO,Deer Crest Resort,1200 Fall River Rd,80517
588,Estes Park,CO,Timber Creek Chalets,2115 Fall River Rd,80517
589,Eugene,OR,Inn At The 5th,205 E 6th Ave,97401
590,Eureka,CA,Americas Best Value Inn & Suites-eureka,129 4th St,95501
591,Eureka,CA,Holiday Inn Express & Suites Eureka,815 W Wabash Ave,95501
592,Eureka Springs,AR,Econo Lodge,2015 E Van Buren,72632
593,Eureka Springs,AR,The Joy Motel,216 W Van Buren,72632
594,Evans,CO,Americas Best Value Inn - Greeley/Evans,800 31st St,80620
595,Evansville,WY,Comfort Inn Evansville-Casper,269 Miracle Rd,82636
596,Evansville,IN,Le Merigot At Tropicana,615 NW Riverside Dr,47708
597,Evansville,IN,Quality Inn East,5006 E Morgan Ave,47715
598,Everett,WA,Hampton Inn-seattle/everett,2931 W Marine View Dr,98201
599,Exmore,VA,"Holiday Inn Express and Suites Exmore, Eastern Shore",3446 Lankford Hwy,23350
600,Fairbanks,AK,Golden North Motel,4888 Old Airport Rd,99709
601,Fairfax,VA,Extended Stay America Washington D.C. - Fairfax,3997 Fair Ridge Dr,22033
602,Fairfax,VA,Hampton Inn-fairfax City,10860 Fairfax Blvd,22030
603,Fairfield,CA,Best Western Cordelia Inn,4373 Central Pl,94534
604,Fairhaven,MA,Hampton Inn New Bedford/Fairhaven,1 Hampton Way,2719
605,Fairview Heights,IL,"Super 8 Fairview Heights, St. Louis",45 Ludwig Dr,62208
606,Falmouth,MA,The Captain's Manor Inn,27 W Main St,2540
607,Fargo,ND,The Fargo Inn Suites,1025 38th St S,58103
608,Faribault,MN,Days Inn Faribault,1920 Cardinal Ln,55021
609,Farmington,NM,Holiday Inn Express and Suites,2110 Bloomfield Blvd,87401
610,Fayetteville,AR,Days Inn Fayetteville,523 S Shiloh Dr,72704
611,Fayetteville,AR,Hilton Garden Inn Fayetteville,1325 N Palak Dr,72704
612,Fayetteville,NC,Sleep Inn,1915 Cedar Creek Rd,28312
613,Federal Way,WA,Courtyard Seattle Federal Way,31910 Gateway Center Blvd S,98003
614,Federal Way,WA,Hampton Inn & Suites Seattle/federal Way,31720 Gateway Center Blvd S,98003
615,Fenton,MO,Drury Inn & Suites St Louis Fenton,1088 S Highway Dr,63026
616,Findlay,OH,Econo Lodge,316 Emma St,45840
617,Fishersville,VA,Hampton Inn Waynesboro/Stuarts Draft,15 Four Square Ln,22939
618,Flagstaff,AZ,Arizona Mountain Inn & Cabins,4200 Lake Mary Rd,86005
619,Flagstaff,AZ,Comfort Inn Lucky Lane,2480 E Lucky Ln,86004
620,Flagstaff,AZ,Ramada Flagstaff East,2350 E Lucky Ln,86004
621,Flagstaff,AZ,Rodeway Inn Suites,2285 E Butler Ave,86004
622,Flagstaff,AZ,Sonesta ES Suites Flagstaff,1400 N Country Club Dr,86004
623,Flagstaff,AZ,Western Hills Motel,1580 E Route 66,86001
624,Flint,MI,Red Roof Inn Flint-bishop Airport,G3219 Miller Rd,48507
625,Florence,SC,Best Western Inn,1808 W Lucas St,29501
626,Florence,KY,Best Western Inn Florence,7821 Commerce Dr,41042
627,Florence,SC,Holiday Inn Express & Suites Florence I-95 & I-20 Civic Ctr,3440 W Radio Dr,29501
628,Florence,KY,Home2 Suites by Hilton Florence Cincinnati Airport South,7570 Woodspoint Dr,41042
629,Florence,OR,Ocean Breeze Motel,85165 Highway 101,97439
630,Folly Beach,SC,Holliday inn Folly Beach,116 W. Ashley Ave,29439
631,Fond du Lac,WI,Holiday Inn Express & Suites Fond Du Lac,55 Holiday Ln,54937
632,Fontana,CA,Comfort Inn,13500 Baseline Ave,92336
633,Forest Grove,OR,Best Western University Inn & Suites,3933 Pacific Ave,97116
634,Forney,TX,Super 8 Forney,103 W Us Highway 80,75126
635,Forsyth,IL,Residence Inn Decatur Forsyth,230 Lucile Ave,62535
636,Fort Collins,CO,The Armstrong Hotel,259 S College Ave,80524
637,Fort Covington,NY,Great View Motel,2233 State Route 37,12937
638,Fort Davis,TX,Indian Lodge,Hwy 118,79734
639,Fort Lauderdale,FL,Best Western Fort Lauderdale Airport/Cruise Port,1221 W State Road 84,33315
640,Fort Lauderdale,FL,Candlewood Suites Ft. Lauderdale Airport/Cruise,1120 W State Road 84,33315
641,Fort Morgan,CO,Comfort Inn,1417 Barlow Rd,80701
642,Fort Myers,FL,Hampton Inn Suites Fort Myers-Colonial Blvd.,4350 Executive Cir,33916
643,Fort Myers,FL,Suburban Extended Stay Hotel,10150 Metro Pkwy,33966
644,Fort Walton Beach,FL,Holiday Inn Resort Fort Walton Beach,1299 Miracle Strip Pkwy SE,32548
645,Fort Wayne,IN,Best Western Plus Fort Wayne Inn Suites North,5926 Cross Creek Blvd,46818
646,Fort Wayne,IN,Comfort Suites,5775 Coventry Ln,46804
647,Fort Wayne,IN,Days Inn Fort Wayne,1161 W Washington Center Rd,46825
648,Fort Worth,TX,Extended Stay America Fort Worth - Southwest,4701 Citylake Blvd W,76132
649,Fort Worth,TX,Holiday Inn Express Suites Fort Worth Downtown,1111 W Lancaster Ave,76102
650,Fort Worth,TX,Residence Inn Fort Worth Cultural District,2500 Museum Way,76107
651,Fostoria,OH,Best Western Fostoria Inn Suites,1690 N Countyline St,44830
652,Franconia,NH,Cannon Mountain View Motel,729 Main St,03580-4807
653,Frankenmuth,MI,Holiday Inn Express & Suites Frankenmuth,926 S Main St,48734
654,Franklin,TN,Drury Plaza Hotel Nashville Franklin,1874 W Mcewen Dr,37067
655,Franklin,WV,Thompson's Motel Inc,Junction Of 33 And US 220,26807
656,Fredericksburg,TX,Hangar Hotel,155 Airport Rd,78624
657,Freehold,NJ,Radisson Hotel Freehold,50 Gibson Pl,07728-2514
658,Freeport,IL,Super 8 Freeport,1551 S Sleezer Home Rd,61032
659,Freeport,IL,Town House Motel,1156 W Galena Ave,61032
660,Freer,TX,Budget Inn Suites,512 E Riley St,78357
661,Fremont,OH,Hampton Inn & Suites Fremont,540 E County Road 89,43420
662,Fresno,CA,Holiday Inn Express & Suites Fresno (River Park) Hwy 41,7115 N Howard St,93720
663,Fresno,CA,Red Roof Inn Fresno - Yosemite Gateway,4141 N Blackstone Ave,93726
664,Friday Harbor,WA,Friday Harbor Suites,680 Spring St,98250
665,Frisco,CO,Snowshoe Motel,521 W Main St,80443
666,Frisco,TX,Wingate by Wyndham Frisco,14700 State Highway 121,75035
667,Fruitland,MD,Hampton Inn & Suites Salisbury Fruitland,304 Prosperity Ln,21826
668,Fullerton,ND,Carroll House,19 N Monroe St,58441
669,Fullerton,CA,Grand Inn,1000 S Euclid St,92832
670,Gaffney,SC,Sleep Inn,834 Windslow Ave,29341
671,Gainesville,FL,Courtyard Gainesville,3700 SW 42nd St,32608
672,Gainesville,FL,Home2 Suites By Hilton Gainesville,2115 Sw 13th St,32608
673,Gainesville,FL,Rodeway Inn,3459 SW Williston Rd,32608
674,Galax,VA,Hampton Inn Galax,205 Cranberry Rd,24333
675,Galena,IL,Best Western Designer Inn & Suites,9923 W US Route 20,61036
676,Garden Grove,CA,Hilton Garden Inn Anaheim-Garden Grove,11777 Harbor Blvd,92840
677,Gardena,CA,Travelodge Inn And Suites Gardena CA,1390 W 186th St,90248
678,Gardner,MA,The Colonial Hotel,625 Betty Spring Rd,1440
679,Gatlinburg,TN,Best Western Twin Islands,539 Parkway,37738
680,Gatlinburg,TN,Chalet Inn,516 Sunset Dr,37738
681,Gatlinburg,TN,Jack Huff's,204 Cherokee Orchard Rd,37738
682,Gillette,WY,Days Inn Gillette,910 E Boxelder Rd,82718
683,Gladstone,OR,Holiday Inn Express Portland Se - Clackamas Area,75 82nd Dr,97027
684,Glen Burnie,MD,Days Inn Baltimore South/Glen Burnie,6600 Ritchie Hwy,21061
685,Glendale,CA,Chariot Inn,1118 E Colorado St,91205
686,Glenview,IL,Best Western Plus Glenview-Chicagoland Inn Suites,4514 W Lake Ave,60026
687,Gloucester,MA,Atlantis Oceanfront Inn,125 Atlantic Rd,1930
688,Gloucester,VA,Hampton Inn Gloucester,6638 Forest Hill Ave,23061
689,Gloucester,MA,The Sea Lion Motel,138 Eastern Ave,1930
690,Golden,CO,Table Mountain Inn,1310 Washington Ave,80401
691,Goldendale,WA,Ponderosa Motel,775 E Broadway St,98620
692,Goodlettsville,TN,Baymont Inn & Suites Goodlettsville,100 Northcreek Blvd,37072
693,Goodlettsville,TN,Fairwinds Inn,100 Northcreek Blvd,37072
694,Goodlettsville,TN,Magnuson Hotel Nashville North,809 Wren Rd,37072
695,Granbury,TX,Best Western Granbury Inn Suites,1517 Plaza Dr,76048
696,Granby,MA,Granby Motel,5 W State St,1033
697,Grand Coulee,WA,Grand Coulee Center Lodge,404 Spokane Way,99133
698,Grand Forks,ND,Budget Inn Express-grand Forks,3400 Gateway Dr,58203
699,Grand Forks,ND,"My Place Hotel-Grand Forks, ND",1315 S 42nd St,58201
700,Grand Haven,MI,Best Western Beacon Inn,1525 S Beacon Blvd,49417
701,Grand Haven,MI,Bluewater Inn And Suites,1030 S Harbor Dr,49417
702,Grand Island,NE,Americas Best Value Inn Suites Grand Island,3021 S Locust St,68801
703,Grand Island,NE,Best Western Plus Grand Island Inn Suites,2707 S Locust St,68801
704,Grand Junction,CO,Americas Best Value Inn Grand Junction,754 Horizon Dr,81506
705,Grand Junction,CO,Prospector Motel,547 Highway 50,81503
706,Grand Lake,CO,Americas Best Value Inn Bighorn Lodge,613 Grand Avenue,80447
707,Grand Prairie,TX,Best Western Plus Arlington North Hotel Suites,2075 N State Highway 360,75050
708,Grand Prairie,TX,La Quinta Inn & Suites Dallas Grand Prairie South,2131 W Interstate 20,75052
709,Grand Prairie,TX,Neal's Court,1802 W Main St,75050
710,Grand Rapids,MI,Best Western Executive Inn Suites,2725 Buchanan Ave SW,49548
711,Grand Rapids,MI,Hampton Inn & Suites Grand Rapids Downtown,433 Dudley Pl Ne,49503
712,Grand Rapids,MI,Motel 6 Grand Rapids - Airport,4855 28th St SE,49512
713,Grants Pass,OR,Motel Del Rogue,2600 Rogue River Hwy,97527
714,Grants Pass,OR,Riverside Inn,986 Sw 6th St,97526
715,Grants Pass,OR,Wild River Inn,110 NE Morgan Ln,97526
716,Great Falls,MT,Fairfield Inn Great Falls,1000 9th Ave S,59405
717,Greeley,CO,Days Inn Greeley,5630 W 10th St,80634
718,Greenville,SC,Aloft Greenville Downtown,5 N Laurens St,29601
719,Greenville,SC,Econo Lodge Inn Suites,20 Interstate Ct,29615
720,Greenville,TX,Holiday Inn Express & Suites Greenville,2901 Mustang Xing,75402
721,Greenville,SC,Home2 Suites By Hilton Greenville Airport,20 Beacon Dr,29615
722,Greenville,SC,"The Westin Poinsett, Greenville",120 S Main St,29601
723,Greenville Junction,ME,Chalet Moosehead Lakefront Motel,12 N Birch St,4442
724,Gretna,LA,Econo Lodge,100 Westbank Expy,70053
725,Greybull,WY,Greybull Motel,300 N 6th St,82426
726,Greybull,WY,Wheels Motel,1324 N 6th St,82426
727,Grove City,OH,Best Western Executive Inn,4026 Jackpot Rd,43123
728,Grove City,OH,Hilton Garden Inn Columbus/Grove City,3928 Jackpot Rd,43123
729,Guerneville,CA,Guerneville Lodge,15905 River Rd,95446
730,Guilford,CT,Red Roof Plus+& Suites Guilford,2300 Boston Post Rd,6437
731,Hackettstown,NJ,Quality Inn,1925 State Route 57,7840
732,Hadley,MA,Comfort Inn,237 Russell St,1035
733,Hall,MT,Boulder Creek Lodge Montana,4 Boulder Creek Rd,59837
734,Hampton,VA,Best Western Hampton Coliseum Inn,1916 Coliseum Dr,23666
735,Hampton,NH,Blue Jay Motel,186 Ashworth Ave,3842
736,Hampton,NH,Dolphyn Motel,48 Ashworth Ave,3842
737,Hampton,VA,Extended Stay America Hampton - Coliseum,1915 Commerce Dr,23666
738,Hampton,VA,Hampton Inn Hampton-Newport News,3101 Coliseum Dr,23666
739,Hampton,VA,Hilton Garden Inn Hampton Coliseum Central,1999 Power Plant Pkwy,23666
740,Hampton,VA,Red Roof Inn Hampton Coliseum Convention Center,1925 Coliseum Dr,23666
741,Hanover,MD,Aloft Arundel Mills,7520 Teague Rd,21076
742,Hanover,MD,Holiday Inn Express Baltimore-Bwi Airport West,7481 Ridge Rd,21076
743,Hanover,MD,Ramada BWI Airport/Arundel Mills,7253 Parkway Dr,21076
744,Hanover,NH,Six South St Hotel,6 South St,3755
745,Hardeeville,SC,Red Roof Inn Hardeeville,1122 Hummingbird Ln,29927
746,Harker Heights,TX,Best Western Harker Heights,511 Pan American Dr,76548
747,Harrisburg,PA,Best Western Premier The Central Hotel & Conference Center,800 E Park Dr,17111
748,Harrisburg,PA,Courtyard Harrisburg Hershey,725 Eisenhower Blvd,17111
749,Harrisburg,PA,Hilton Garden Inn Harrisburg East,3943 Tecport Dr,17111
750,Harrisburg,PA,Holiday Inn Express Harrisburg East,4021 Union Deposit Rd,17109
751,Harrison,NJ,Element Harrison - Newark,399 Somerset St,7029
752,Harrisville,PA,Quality Inn,137 Gibb Rd,16038
753,Hartsville,SC,Hartsville Motel,806 N 5th St,29550
754,Hartwell,GA,Quality Inn,1091 E Franklin St,30643
755,Haverhill,MA,Best Western Merrimack Valley,401 Lowell Ave,1832
756,Hawthorne,CA,Ramada Plaza Hawthorne/LAX,5250 W El Segundo Blvd,90250
757,Hawthorne,CA,SpringHill Suites Los Angeles LAX/Manhattan Beach,14620 Aviation Blvd,90250
758,Hays,KS,Econo Lodge,3503 Vine St,67601
759,Heber,AZ,Best Western Sawmill Inn,1877 Highway 260,85928
760,Helen,GA,Alpine River Suites,892 Edelweiss Strasse,30545
761,Helena,MT,Fairfield Inn Helena,2150 11th Ave,59601
762,Helena,MT,Holiday Inn Express & Suites Helena,3170 N Sanders St,59602
763,Henderson,NV,Courtyard Las Vegas Henderson/Green Valley,2800 N Green Valley Pkwy,89014
764,Henderson,KY,Economy Inn Suites,2030 US Highway 41 N,42420
765,Henderson,NV,Fiesta Henderson Hotel & Casino,777 W Lake Mead Pkwy,89015
766,Henrietta,NY,Microtel Inn by Wyndham Henrietta/Rochester,905 Lehigh Station Rd,14467-9374
767,Herkimer,NY,Budget Inn Motel,715 Mohawk St,13350-2205
768,Hermann,MO,Lydia Johnson Inn,204 Market St,65041
769,Herndon,VA,The Westin Washington Dulles Airport,2520 Wasser Ter,20171
770,Heyburn,ID,Top's Motel,310 S Highway 24,83336
771,Hialeah,FL,Ramada Hialeah Miami Airport,1950 W 49th St,33012
772,Highlands,NC,The Park On Main Hotel,205 Main St,28741
773,Hilliard,OH,Best Western Hilliard Inn Suites,3831 Park Mill Run Dr,43026
774,Hilo,HI,Pakalana Inn,132 Punahoa St,96720
775,Hilton Head Island,SC,Hampton Inn Hilton Head,1 Dillon Rd,29926
776,Holland,MI,Baymont Inn & Suites-holland,680 E 24th St,49423
777,Holland,OH,Econo Lodge,1201 E Mall Dr,43528
778,Hollywood,FL,Bougainvillea On The Beach,2813 N Surf Rd,33019
779,Hollywood,FL,Caribbean Resort By The Ocean,313 Hayes St,33019
780,Hollywood,FL,Enchanted Isle Resort,1601 S Surf Rd,33019
781,Hollywood,FL,Holiday Inn Ft. Lauderdale-Airport,2905 Sheridan St,33020
782,Hollywood,FL,Neptune Hollywood Beach Hotel,310 Mckinley St,33019
783,Hollywood,FL,Ocean Drive Villas,1701 N Ocean Dr,33019
784,Hollywood,FL,Pousada Suites,2901 N Ocean Dr,33019
785,Hollywood,FL,Quality Inn & Suites Airport/Cruise Port South,2520 Stirling Rd,33020
786,Hollywood,FL,Walkabout Beach Resort,2500 N Surf Rd,33019
787,Hollywood,FL,Wingate By Wyndham-Miramar,2800 SW 149th Ave,33027
788,Homosassa,FL,MacRae's Of Homosassa Inc,5300 S Cherokee Way,34448
789,Honolulu,HI,Aqua Waikiki Pearl,415 Nahua St,96815
790,Honolulu,HI,Coconut Waikiki Hotel,450 Lewers St,96815
791,Honolulu,HI,Hotel Renew,129 Paoakalani Avenue,96815
792,Honolulu,HI,The Kahala Hotel & Resort,5000 Kahala Avenue,96816
793,Hope,AR,Best Western Of Hope,1800 Holiday Dr,71801
794,Horn Lake,MS,Best Western Plus Goodman Inn & Suites,6910 Windchase Dr,38637
795,Horse Cave,KY,Hampton Inn Horse Cave,750 Flint Ridge Rd,42749
796,Horseheads,NY,Hampton Inn-elmira/horseheads,51 Arnot Rd,14845
797,Houma,LA,Mainstay Suites,1650 Grand Caillou Rd,70363
798,Houston,TX,Aloft Houston by the Galleria,5415 Westheimer Rd,77056
799,Houston,TX,Club Quarters Hotel in Houston,720 Fannin St,77002
800,Houston,TX,Courtyard Houston Hobby Airport,9190 Gulf Fwy,77017
801,Houston,TX,Courtyard by Marriott Houston Brookhollow,2504 North Loop W,77092
802,Houston,TX,Lobby Bar,1600 Lamar St,77010
803,Houston,TX,Wyndham Houston - Medical Center Hotel and Suites,6800 Main St,77030
804,Hudson,WI,Hampton Inn Suites Hudson,2610 Pearson Dr,54016
805,Hudson,WI,Quality Inn,811 Dominion Dr,54016
806,Hugoton,KS,Best Western Plus Stevens County Inn,1004 E 11th St,67951
807,Huntingdon,PA,The Inn at Solvang,10611 Standing Stone Rd,16652
808,Huntington Beach,CA,Pasea Hotel & Spa,21080 Pacific Coast Hwy,92648
809,Hyattsville,MD,Metro Points Hotel-Washington North,8500 Annapolis Rd,20784
810,Idaho Falls,ID,Comfort Inn,195 S Colorado Ave,83402
811,Idaho Falls,ID,Sleep Inn Suites,3200 Outlet Blvd,83402
812,Independence,KS,Appletree Inn,201 N 8th St,67301
813,Independence,IA,Best Western Plus Independence Inn & Suites,2100 Swan Lake Blvd,50644
814,Independence,MO,Comfort Suites-independence,19751 E Valley View Pkwy,64057
815,Indian River,MI,Brentwood Lodging,4778 S Straits Hwy,49749
816,Indiana,PA,Brown Hotel,103 N 6th St,15701
817,Indiana,PA,Four Flags Inn,1411 Wayne Ave,15701
818,Indianapolis,IN,Courtyard Indianapolis Castleton,8670 Allisonville Rd,46250
819,Indianapolis,IN,Drury Plaza Hotel Indianapolis Carmel,9625 N Meridian St,46290
820,Indianapolis,IN,Fairfield Inn & Suites Indianapolis Downtown,501 W Washington St,46204
821,Indianapolis,IN,Hampton Inn Suites Indianapolis-Keystone,8980 River Crossing Blvd,46240
822,Indianapolis,IN,Staybridge Suites Indianapolis-Carmel,10675 N Pennsylvania St,46280
823,Indianola,IA,Apple Tree Inn,1215 N Jefferson Way,50125
824,Indianola,MS,Hampton Inn Indianola,913 Highway 82 W,38751
825,Indio,CA,Super 8 Indio,81753 Us Highway 111,92201
826,Inglewood,CA,Diamond Inn,3735 W Imperial Hwy,90303
827,International Falls,MN,Hilltop Motel,2002 2nd Ave,56649
828,Iraan,TX,Mesa View Inn,9289 Alley Oop Ln,79744
829,Ironwood,MI,Americas Best Value Inn,160 E Cloverland Dr,49938
830,Ironwood,MI,Indianhead Motel,823 E Cloverland Dr,49938
831,Irving,TX,Hyatt Place Dallas/Las Colinas,5455 Green Park Dr,75038
832,Isle of Palms,SC,Seaside Inn,1004 Ocean Blvd,29451
833,Ithaca,NY,"Country Inn & Suites By Carlson, Ithaca, NY",1100 Danby Rd,14850
834,Ithaca,NY,Hilton Garden Inn Ithaca,130 E Seneca St,14850
835,Jackson,TN,Comfort Suites,61 Casey Jones Ln,38305
836,Jackson,OH,Days Inn Jackson,972 E Main St,45640
837,Jackson,MO,"Drury Inn Suites Jackson, MO",225 Drury Ln,63755
838,Jackson,TN,Hampton Inn & Suites Jackson,150 Campbell Oaks Dr,38305
839,Jackson,TN,Scottish Inn,2295 N Highland Ave,38305-4922
840,Jacksonville,FL,Aloft Jacksonville Tapestry Park,4812 Deer Lake Dr W,32246
841,Jacksonville,FL,Econo Lodge,1181 Airport Rd,32218
842,Jacksonville,NC,Economy Inn,601 N Marine Blvd,28540
843,Jacksonville,FL,Four Points by Sheraton Jacksonville Baymeadows,8520 Baymeadows Rd,32256
844,Jacksonville,FL,Hilton Garden Inn Jacksonville Downtown Southbank,1201 Kings Ave,32207
845,Jacksonville,FL,Residence Inn Jacksonville Butler Boulevard,10551 Deerwood Park Blvd,32256
846,Jamaica,NY,Days Inn-jfk Airport,14426 153rd Ct,11434
847,Jamaica,NY,Lexington Inn At Jfk Airport,13805 Jamaica Ave,11435
848,Jane Lew,WV,Plantation Inn & Suites,1322 Hackers Creek Rd,26378
849,Janesville,WI,Hampton Inn-janesville,2400 Fulton St,53546
850,Jefferson City,MO,Quality Inn & Suites Jefferson City,1716 Jefferson St,65109
851,Johnson City,TN,Comfort Suites,3118 Browns Mill Rd,37604
852,Johnson City,TN,Econo Lodge Inn Suites,207 E Mountcastle Dr,37601
853,Joliet,IL,Wingate by Wyndham - Joliet,101 McDonald Ave,60431
854,Jonesboro,AR,Hilton Garden Inn Jonesboro,2840 S Caraway Rd,72401
855,Jonesboro,AR,Park Place Inn,1421 S Caraway Rd,72401
856,Jonesville,NC,Americas Best Value Inn Jonesville,5702 Us Highway 21,28642
857,Juneau,AK,Best Western Grandma's Feather Bed,2358 Mendenhall Loop Rd,99801
858,Jupiter,FL,Best Western Intracoastal Inn,810 S US Highway 1,33477
859,Kaktovik,AK,Waldo Arms Hotel,6011 Lake Rd,99747
860,Kalamazoo,MI,Comfort Inn,739 W Michigan Ave,49007
861,Kalispell,MT,Kalispell Grand Hotel,100 Main St,59901
862,Kankakee,IL,Hilton Garden Inn Kankakee,455 Riverstone Pkwy,60901
863,Kansas City,MO,Comfort Suites Kansas City-Liberty,8200 N Church Rd,64158
864,Kansas City,MO,Hampton Inn Suites Kansas City-Country Club Plaza,4600 Summit St,64112
865,Kansas City,MO,Hotel Phillips,106 W 12th St,64105
866,Kansas City,MO,Sheraton Kansas City Hotel at Crown Center,2345 McGee St,64108
867,Katy,TX,Best Western Premier Energy Corridor,1549 Westborough Dr,77449
868,Kearney,NE,Best Western Plus Mid Nebraska Inn & Suites,224 2nd Ave S,68847
869,Kelleys Island,OH,Kelleys Island Venture Resort,441 W Lakeshore Dr,43438
870,Kenai,AK,Alicia's Eagle Rock Lodge,5679 Kenai Spur Hwy,99611
871,Kenedy,TX,Fieldhouse Inn,301 Young St,78119
872,Kennesaw,GA,Best Western Kennesaw Inn,3375 Busbee Dr NW,30144
873,Kenyon,MN,Schweich's Hotel Bar & Restaurant,632 2nd St,55946
874,Key Biscayne,FL,Silver Sands Beach Resort,301 Ocean Dr,33149
875,Key West,FL,Fairfield Inn & Suites by Marriott Key West at The Keys Collection,3852 N Roosevelt Blvd,33040-4535
876,Key West,FL,"The Saint Hotel Key West, Autograph Collection",417 Eaton St,33040-6511
877,Killdeer,ND,Mountain View Hotel,15 Mountain View St,58640
878,Killington,VT,North Star Lodge,78 Weathervane Dr,5751
879,Killington,VT,The Mountain Inn,47 Old Mill Rd,5751
880,Kimberling City,MO,Kimberling Oaks Resort,31 Holiday Dr,65686
881,Kimberling City,MO,Schooner Creek Resort,27 Schooner Creek Rd,65686
882,King of Prussia,PA,Best Western Plus The Inn at King of Prussia,127 S Gulph Rd,19406
883,King of Prussia,PA,Radisson Hotel Valley Forge,1160 First Ave,19406
884,Kingman,AZ,Ramada-kingman,3100 E Andy Devine Ave,86401
885,Kings Beach,CA,Ferrari's Crown Resort,8200 N Lake Blvd,96143
886,Kings Mountain,NC,Quality Inn,722 York Rd,28086
887,Kingsland,GA,Comfort Suites Kings Bay Naval Base Area,1322 Hospitality Ave,31548
888,Kingsland,GA,Hampton Inn Kingsland,102 Reddick Rd,31548
889,Kingsport,TN,Comfort Inn South,4624 Fairlane Dr,37663
890,Kiowa,KS,Kiowa Motel,802 S 4th St,67070
891,Kissimmee,FL,Baymont Inn & Suites Celebration,7601 Black Lake Rd,34747
892,Kissimmee,FL,Baymont Inn & Suites Kissimmee,4156 W Vine St,34741
893,Kissimmee,FL,Clarion Resort Waterpark,2261 E Irlo Bronson Memorial Hwy,34744
894,Kissimmee,FL,High Point World Resort,2951 High Point Blvd,34747
895,Kissimmee,FL,Quality Inn and Suites By The Parks,2945 Entry Point Boulevard,34747
896,Kittery,ME,Litson Villas,127 State Rd,3904
897,Klamath Falls,OR,Golden West Motel,6402 S 6th St,97603
898,Knoxville,TN,Comfort Suites,811 N Campbell Station Rd,37932
899,Knoxville,TN,Hampton Inn Suites Knoxville Papermill Drive,601 N Weisgarber Rd,37919
900,Knoxville,TN,Inn Of Knoxville,1500 N Cherry St,37917
901,Knoxville,TN,Travelodge Knoxville West,6200 Papermill Dr,37919
902,Koloa,HI,Grand Hyatt Kauai Resort & Spa,1571 Poipu Rd,96756
903,Koloa,HI,Koloa Landing Resort,2641 Poipu Rd,96756
904,Kƒ´hei,HI,Days Inn Maui Oceanfront,2980 S Kihei Rd,96753
905,La Conner,WA,La Conner Country Inn,107 S Second St,98257
906,La Jolla,CA,Grande Colonial La Jolla,910 Prospect Street,92037-4198
907,La Jolla,CA,Hotel La Jolla,7955 La Jolla Shores Dr,92037
908,LaGrange,GA,Quality Inn,110 Jameson Dr,30241
909,LaGrange,GA,Wingate by Wyndham LaGrange-Callaway,103 Wingate Ter,30241
910,Lafayette,LA,Bendel Executive Suites,213 Bendel Rd,70503
911,Lafayette,LA,Best Western Plus Vermilion River Suites Hotel,125 E Kaliste Saloom Rd,70508
912,Lafayette,IN,Comfort Suites,31 Frontage Rd,47905
913,Lafayette,IN,Courtyard by Marriott Lafayette,150 Fairington Ave,47905
914,Lafayette,IN,Hampton Inn Lafayette,3941 South St,47905
915,Lafayette,LA,Motel 6 Lafayette - University Ave,1605 N University Ave,70506
916,Lafayette,LA,SpringHill Suites Lafayette South at River Ranch,321 Settlers Trace Blvd,70508
917,Lafayette,LA,Wyndham Garden Lafayette,1801 W Pinhook Rd,70508
918,Laguna Beach,CA,Hotel Laguna,425 S Coast Hwy,92651
919,Lahaina,HI,Best Western Pioneer Inn,658 Wharf St,96761
920,Lahaina,HI,Honua Kai Resort Spa,130 Kai Malina Pkwy,96761
921,Lake Charles,LA,Inn On The Bayou,1101 W Prien Lake Rd,70601
922,Lake Charles,LA,"Motel 6 Lake Charles, LA",921 N Martin Luther King Hwy,70601
923,Lake Charles,LA,Wingate by Wyndham Lake Charles Casino Area,1731 W Prien Lake Rd,70601
924,Lake Elsinore,CA,Best Western Plus Lake Elsinore Inn & Suites,31781 Casino Dr,92530
925,Lake Elsinore,CA,Quality Inn,31808 Casino Dr,92530
926,Orange County,CA,Candlewood Suites Orange County/Irvine East,3 S Pointe Dr,92630
927,Lake George,NY,Park Lane Motel,378 Canada St,12845
928,Lake Mary,FL,Hampton Inn Suites Lake Mary At Colonial Townpark,850 Village Oak Ln,32746
929,Lake Placid,NY,Best Western Adirondack Inn,2625 Main St,12946
930,Lake Placid,FL,Holiday Inn Express & Suites Lake Placid,608 S Lakeview Rd,33852
931,Lakeland,FL,Holiday Inn Express & Suites Lakeland North - I-4,4500 Lakeland Park Dr,33809
932,Lakeland,FL,Suburban Extended Stay,4335 Williamstown Blvd,33810
933,Lakeview,OR,Best Western Skyline Motor Lodge,414 N G St,97630
934,Lancaster,CA,Homewood Suites By Hilton Lancaster,2320 Double Play Way,93536
935,Lanesboro,MN,Marquee Suites,204 Parkway Ave N,55949
936,Lanham,MD,Best Western Capital Beltway,5910 Princess Garden Pkwy,20706
937,Lansing,MI,Hampton Inn Suites Lansing West,900 N Canal Rd,48917
938,Lansing,MI,Red Roof Inn Lansing East - Michigan State University,3615 Dunckel Rd,48910
939,Laredo,TX,Residence Inn Laredo Del Mar,310 Lost Oaks Blvd,78041
940,Las Vegas,NV,ARIA Resort Casino,3730 Las Vegas Blvd S,89158
941,Las Vegas,NV,Americas Best Value Inn Las Vegas,167 E Tropicana Ave,89109
942,Las Vegas,NV,Courtyard Las Vegas Convention Center,3275 Paradise Rd,89109
943,Las Vegas,NV,Fremont Hotel & Casino,200 Fremont Street,89101
944,Las Vegas,NV,Fun City Motel,2233 Las Vegas Blvd S,89104
945,Las Vegas,NV,Hotel Galaxy,5201 Dean Martin Dr,89118
946,Las Vegas,NV,Main Street Station Casino Brewery Hotel,200 North Main Street,89101
947,Las Vegas,NV,Nobu Hotel at Caesars Palace,3570 Las Vegas Blvd S,89109
948,Las Vegas,NV,Residence Inn By Marriott Las Vegas South,5875 Dean Martin Dr,89118
949,Las Vegas,NV,Royal Resort,99 Convention Center Dr,89109-2010
950,Las Vegas,NV,Siena Suites,6555 Boulder Hwy,89122
951,Las Vegas,NV,SpringHill Suites Las Vegas Convention Center,2989 Paradise Rd,89109-1220
952,Las Vegas,NV,Sterling Gardens Hotel,1808 Fremont St,89101-5108
953,Las Vegas,NV,Suncoast Hotel and Casino,9090 Alta Dr,89145-8508
954,Las Vegas,NM,Sunshine Motel,1201 Grand Ave,87701
955,Las Vegas,NV,The Westin Las Vegas Hotel & Spa,160 East Flamingo Road,89109
956,Latta,SC,Best Western,1534 Highway 38 W,29565
957,Laughlin,NV,Colorado Belle Hotel And Casino,2100 S Casino Dr,89029
958,Lavallette,NJ,Lamplight Motel,204 Grand Central Ave,8735
959,Lavonia,GA,Hampton Inn Suites Lavonia,115 Owens Dr,30553
960,Lavonia,GA,Super 8 Lavonia,14227 Jones St,30553
961,Lawrence,KS,Motel 6 Lawrence Ks,1130 N 3rd St,66044
962,Lawton,OK,Comfort Suites,201 SE Interstate Dr,73501
963,Lebanon,MO,Econo Lodge,1221 Millcreek Rd,65536
964,Lebanon,KY,Hampton Inn Lebanon,1125 N Loretto Rd,40033
965,Leesburg,VA,Hampton Inn Suites Leesburg,117 Fort Evans Rd NE,20176
966,Lesterville,MO,Wilderness Lodge,Po Box 90,63654
967,Lewes,DE,Red Mill Inn,16218 Coastal Hwy,19958
968,Lewisburg,TN,Richland Inn - Lewisburg,723 E Commerce St,37091
969,Lewiston,ID,Comfort Inn,2128 8th Ave,83501
970,Lexington,SC,Comfort Suites Lexington,325 W Main St,29072
971,Lexington,KY,Hampton Inn Lexington Medical Center,1953 Nicholasville Rd,40503
972,Lexington,MI,Harbourfront Motel,5689 Old Orchard Bluff Rd,48450
973,Lexington,KY,Home2 Suites by Hilton Lexington University / Medical Center,126 E Lowry Ln,40503
974,Lexington,KY,Motel 6,2260 Elkhorn Rd,40505
975,Lexington,KY,Residence Inn Lexington North,1080 Newtown Pike,40511
976,Lexington,KY,Sleep Inn,1920 Plaudit Pl,40509
977,Limon,CO,Comfort Inn,2255 9th St,80828
978,Lincoln,NE,Hilton Garden Inn Lincoln Downtown Haymarket,801 R St,68508
979,Lincoln,NE,Staybridge Suites Lincoln Northeast,1501 N 86th St,68505
980,Lincoln City,OR,Rodeway Inn Suites,1070 SE 1st St,97367
981,Lincoln City,OR,Sailor Jack Ocean Front Motel,1035 NW Harbor Ave,97367
982,Lincolnton,NC,Hampton Inn-lincolnton,129 Roper Rd,28092
983,Linthicum Heights,MD,Embassy Suites by Hilton Baltimore at BWI Airport,1300 Concourse Dr,21090
984,Linthicum Heights,MD,Hilton Baltimore BWI Airport,1739 W Nursery Rd,21090
985,Linthicum Heights,MD,Hilton Garden Inn BWI Airport,1516 Aero Dr,21090
986,Linthicum Heights,MD,Residence Inn Baltimore BWI Airport,1160 Winterson Rd,21090
987,Lithonia,GA,Holiday Inn Express & Suites Atlanta East - Lithonia,7846 Stonecrest Sq,30038
988,Lithonia,GA,Hyatt Place Atlanta-East/Lithonia,7900 Mall Ring Rd,30038
989,Little Rock,AR,Hampton Inn & Suites Little Rock-downtown,320 River Market Ave,72201
990,Littleton,CO,Comfort Suites Highlands Ranch Denver Tech Center Area,7060 E County Line Rd,80126
991,Littleton,CO,Holiday Inn Express Suites Denver Sw-Littleton,12683 W Indore Pl,80127
992,Littleton,MA,Lyttleton Inn,423 King St,1460
993,Lockport,NY,Best Western Plus Lockport Hotel,515 S Transit St,14094
994,Lodi,WI,Quality Inn Suites,W9250 Prospect Dr,53555
995,Lodi,CA,Viking Motel,815 S Cherokee Ln,95240
996,Logan,UT,Days Inn & Suites Logan,447 N Main St,84321
997,Londonderry,VT,Blue Gentian Lodge,289 Magic Mtn Access,5148
998,Lone Tree,CO,Element Denver Park Meadows,9985 Park Meadows Dr,80124
999,Long Beach,CA,Best Western Plus Hotel At The Convention Center,517 E 1st St,90802
1000,Long Beach,CA,Hotel Maya - a DoubleTree by Hilton Hotel,700 Queensway Dr,90802
1001,Long Beach,CA,Rodeway Inn,50 Atlantic Ave,90802
1002,Long Beach,CA,The Varden Hotel,335 Pacific Ave,90802
1003,Longboat Key,FL,The Resort at Longboat Key Club,220 Sands Point Rd,34228
1004,Los Alamos,CA,Alamo Motel,425 Bell St,93440
1005,Los Angeles,CA,Holiday Inn Express & Suites Los Angeles Downtown West,611 S Westlake Ave,90057
1006,Los Angeles,CA,Hollywood Inn Express South,141 N Alvarado St,90026-5302
1007,Los Angeles,CA,Miyako Hotel Los Angeles,328 East 1st Street,90012
1008,Los Angeles,CA,The L.A. Hotel Downtown,333 S Figueroa St,90071
1009,Los Angeles,CA,W Los Angeles - West Beverly Hills,930 Hilgard Ave,90024
1010,Louisville,KY,Comfort Inn Suites Airport and Expo,653 Phillips Ln,40209
1011,Louisville,KY,Courtyard Louisville Airport,819 Phillips Ln,40209
1012,Louisville,KY,Econo Lodge Downtown,401 S 2nd St,40202
1013,Louisville,KY,Fairfield Inn & Suites Louisville Downtown,100 E Jefferson St,40202
1014,Louisville,KY,Galt House Hotel,140 N 4th St,40202
1015,Louisville,KY,Howard Johnson Express Inn/Airport,709 Phillips Ln,40209
1016,Louisville,KY,Ramada Louisville Expo Center,2912 Crittenden Dr,40209
1017,Loup City,NE,Frederick Hotel Cafe,810 O St,68853
1018,Lubbock,TX,Americas Best Value Inn - Medical Center / Lubbock,4105 19th St,79410
1019,Ludlow,VT,Ludlow Village Inn & Suites,95 Main St,5149
1020,Lufkin,TX,Best Western Plus Crown Colony Inn Suites,3211 S 1st St,75901
1021,Luray,VA,Luray Caverns Motel East,831 W Main St,22835
1022,Lynchburg,VA,Econo Lodge,2400 Stadium Rd,24501
1023,Lynchburg,VA,Hampton Inn Suites Lynchburg,3600 Liberty Mountain Dr,24502
1024,Lyndon,VT,Lyndon Motor Lodge,6148 Memorial Dr,5849
1025,Mackinaw City,MI,Americas Best Value Inn Mackinaw City,112 Old Us 31,49701
1026,Macomb,IL,Hampton Inn Macomb,1639 E Jackson St,61455
1027,Macon,GA,Residence Inn Macon,3900 Sheraton Dr,31210
1028,Madison,WI,Days Inn & Suites Madison,4402 E Broadway Service Rd,53716
1029,Madison,WI,Hotel Red,1501 Monroe St,53711
1030,Madison,WI,Magnuson Grand Hotel,3510 Millpond Rd,53718
1031,Madras,OR,Inn At Cross Keys Station,66 Nw Cedar St,97741
1032,Mamaroneck,NY,Mamaroneck Motel,1015 W Boston Post Rd,10543
1033,Mancos,CO,Mesa Verde Motel,191 Railroad Ave,81328
1034,Manhattan,KS,Best Western Manhattan Inn,601 E Poyntz Ave,66502
1035,Manistee,MI,River Side Motel Marina,520 Water St,49660
1036,Manitou Springs,CO,Dillon Motel,134 Manitou Ave,80829
1037,Manitou Springs,CO,La Fon Motel,123 Manitou Ave,80829-2426
1038,Mansfield,OH,Quality Inn Suites,500 N Trimble Rd,44906
1039,Marana,AZ,"The Ritz-Carlton, Dove Mountain",15000 N Secret Springs Dr,85658
1040,Marble Falls,TX,Best Western Marble Falls Inn,1403 Us Highway 281,78654
1041,Marietta,GA,Holiday Inn Express Marietta - Atlanta Northwest,1250 Franklin Rd SE,30067
1042,Marietta,OH,Microtel Inn Suites by Wyndham Marietta,506 Pike St,45750
1043,Marina,CA,Best Western Beach Dunes Inn,3290 Dunes Rd,93933
1044,Marina,CA,Comfort Inn,140 Reservation Rd,93933
1045,Marina,CA,Howard Johnson Marina at Monterey Bay,416 Reservation Rd,93933
1046,Marinette,WI,Budget Inn,1301 Marinette Ave,54143
1047,Marinette,WI,"Country Inn & Suites By Carlson, Marinette, WI",2020 Old Peshtigo Ct,54143
1048,Markleysburg,PA,National Trail Motel,4617 National Pike,15459
1049,Marlborough,MA,Courtyard Boston Marlborough,75 Felton St,01752-1917
1050,Marquette,MI,Value Host Motor Inn,1101 Us Highway 41 W,49855
1051,Marshall,TX,Best Western Executive Inn,5201 E End Blvd S,75672
1052,Martinsburg,WV,Relax Inn,1022 Winchester Ave,25401
1053,Marysville,WA,Village Inn & Suites,235 Beach Ave,98270
1054,Mason,OH,Motel 6 Mason,5310 Bardes Rd,45040
1055,Mattituck,NY,Mattituck Motel,2150 Bay Ave,11952
1056,Mattoon,IL,Days Inn Mattoon,300 Broadway Ave E,61938
1057,McAlester,OK,Hampton Inn Suites McAlester,711 S George Nigh Expy,74501
1058,McAllen,TX,La Quinta Inn Mcallen,1100 S 10th St,78501
1059,McDonough,GA,Best Western Mcdonough Inn & Suites,805 Industrial Blvd,30253
1060,McMinnville,TN,Best Western Tree City Inn,809 Sparta St,37110
1061,McMinnville,OR,McMenamins Hotel Oregon,310 NE Evans St,97128
1062,McMinnville,OR,Red Lion Inn & Suites McMinnville,2535 NE Cumulus Ave,97128
1063,Medford,OR,Budget Inn of America,345 S Central Ave,97501
1064,Medford,OR,Comfort Inn North,2280 Biddle Rd,97504
1065,Medford,OR,Courtyard by Marriott Medford Airport,600 Airport Rd,97504
1066,Medford,OR,Econo Lodge Inn Suites Central,1015 S Riverside Ave,97501
1067,Medford,OR,Ramada Medford Hotel And Conference Center,2250 Biddle Rd,97504
1068,Medina,OH,Red Roof Inn Cleveland-medina,5021 Eastpointe Dr,44256
1069,Mercer,PA,Holiday Inn Express Grove City (Outlet Center),21 Holiday Blvd,16137
1070,Meredith,NH,Church Landing at Mill Falls,281 Daniel Webster Hwy,3253
1071,Mesa,AZ,Best Western Superstition Springs Inn,1342 S Power Rd,85206
1072,Mesa,AZ,Ramada Mesa Phoenix East Area,1666 S Dobson Rd,85202
1073,Mesquite,NV,Best Western Mesquite Inn,390 N Sandhill Blvd,89027
1074,Mesquite,NV,Solstice Motorcoach Resort,345 Mystic Dr,89034
1075,Miami,FL,"Mandarin Oriental, Miami",500 Brickell Key Drive,33131
1076,Miami,FL,Palmeiras Beach Club at Grove Isle,4 Grove Isle Dr,33133
1077,Miami Beach,FL,AC Hotel Miami Beach,2912 Collins Ave,33140
1078,Miami Beach,FL,Circa 39 Hotel,3900 Collins Ave,33140
1079,Miami Beach,FL,Four Points by Sheraton Miami Beach,4343 Collins Ave,33140
1080,Miami Beach,FL,Hotel St. Augustine,347 Washington Avenue,33139
1081,Miami Beach,FL,Room Mate Lord Balfour,350 Ocean Drive,33139
1082,Miami Beach,FL,Sense Beach House,400 Ocean Drive,33139
1083,Miami Beach,FL,The Hotel of South Beach,801 Collins Avenue,33139
1084,Miami Beach,FL,Villa Paradiso,1415 Collins Ave,33139
1085,Middlefield,CT,Americas Best Value Inn,31 Meriden Rd,6455
1086,Middletown,RI,Hampton Inn & Suites Newport/Middletown,317 W Main Rd,02842-7326
1087,Middletown,NY,Hampton Inn Middletown,20 Crystal Run Xing,10941
1088,Middletown,CT,Inn at Middletown,70 Main St,6457
1089,Midland,TX,Super 8 Midland,3828 W Wall St,79703
1090,Midlothian,VA,Sleep Inn Suites Harbour Pointe,6451 Bayside Ln,23112
1091,Miles City,MT,Best Western War Bonnet Inn,1015 S Haynes Ave,59301
1092,Miles City,MT,Miles City Hotel Suites,1720 S Haynes Ave,59301
1093,Milesburg,PA,Quality Inn,971 N Eagle Valley Road I80 Exit 158,16853
1094,Milford,CT,Hyatt Place Milford,190 Old Gate Ln,6460
1095,Mill Hall,PA,Browns Hill Tavern Motel,717 Browns Hill Rd,17751
1096,Milledgeville,GA,Days Inn Milledgeville,2551 N Columbia St,31061
1097,Milton,FL,Blackwater Inn Milton,8837 Highway 87 S,32583
1098,Milwaukee,WI,Ambassador Hotel,2308 W Wisconsin Ave,53233
1099,Milwaukee,WI,Days Inn & Suites Milwaukee Airport,6331 S 13th St,53221
1100,Milwaukee,WI,Milwaukee Airport Inn,1716 W Layton Ave,53221
1101,Minneapolis,MN,Hampton Inn Suites Minneapolis/Downtown,19 N 8th St,55403
1102,Minneapolis,MN,Super 8 Bloomington/Airport,7800 2nd Ave S,55420
1103,Minooka,IL,Hampton Inn Suites Minooka,621 Bob Blair Rd,60447
1104,Minot,ND,Best Western Kelly Inn,1510 26th Ave SW,58701
1105,Miramar Beach,FL,Quality Inn Suites,39 Scenic Gulf Dr,32550
1106,Missoula,MT,Quality Inn And Suites,4545 N Reserve St,59808
1107,Monroe,LA,Best Western Airport Inn,1475 Garrett Rd,71202
1108,Monroe,LA,Hampton Inn Suites Monroe,5100 Frontage Rd,71202
1109,Monroe,LA,Quality Inn,1407 Martin Luther King Jr Dr,71202
1110,Monroeville,PA,Comfort Suites,2731 Mosside Blvd,15146
1111,Monrovia,CA,Aztec Hotel,311 W Foothill Blvd,91016
1112,Montello,WI,Kozy Rest Motel,106 Central Ave,53949
1113,Monterey,CA,Hyatt Regency Monterey Hotel and Spa on Del Monte Golf Course,1 Old Golf Course Rd,93940
1114,Monterey Park,CA,Best Western Markland Hotel,434 Potrero Grande Dr,91755
1115,Monterey Park,CA,Lincoln Plaza Hotel,123 S Lincoln Ave,91755
1116,Montgomery,TX,Best Western Lake Conroe Inn,14643 Highway 105 W,77356
1117,Montgomeryville,PA,Quality Inn,678 Bethlehem Pike,18936
1118,Monticello,MN,Super 8 Monticello,1114 Cedar St,55362
1119,Montvale,NJ,Courtyard By Marriott Montvale,100 Chestnut Ridge Rd,7645
1120,Moose Lake,MN,Days Inn Moose Lake,400 Park Place Dr,55767
1121,Moosic,PA,Courtyard Scranton Wilkes-Barre,16 Glenmaura National Blvd,18507
1122,Morgantown,WV,Waterfront Place Hotel,2 Waterfront Pl,26501
1123,Moro,OR,Tall Winds Motel,301 Main St,97039
1124,Morrilton,AR,Cedar Falls Motel,1627 Petit Jean Mountain Rd,72110
1125,Morristown,TN,Morristown Hotel Suites,3304 W Andrew Johnson Hwy,37814
1126,Morrisville,PA,Quality Inn & Suites Nj State Capital Area,7 S Pennsylvania Ave,19067
1127,Morro Bay,CA,Pacific Shores Inn,890 Morro Ave,93442
1128,Moses Lake,WA,Best Western Plus Lake Front Hotel,3000 Marina Dr,98837
1129,Moultonborough,NH,Berry Pond Motel,1040 Whittier Hwy,3254
1130,Mount Airy,NC,Mayberry Motor Inn,501 N Andy Griffith Pkwy,27030
1131,Mount Arlington,NJ,Courtyard Rockaway-Mt. Arlington,15 Howard Blvd,07856-1301
1132,Mount Pleasant,TN,America's Best Value Inn Suites,201 Stone Brook Dr,38474
1133,Mount Pleasant,IA,Best Western Mt. Pleasant Inn,810 N Grand Ave,52641
1134,Mount Tremper,NY,Catskill Rose Lodging Dining,5355 Route 212,12457
1135,Mount Vernon,MO,Best Western Mt. Vernon Inn,1200 E Industrial Rd,65712
1136,Mount Vernon,WA,Best Western Plus Skagit Valley Inn and Convention Center,2300 Market St,98273
1137,Mountain Home,AR,Crooked Hook Resort,3483 Rocky Ridge Rd,72653
1138,Mountain Home,AR,Teal Point Resort,715 Teal Point Rd,72653
1139,Mukilteo,WA,TownePlace Suites Seattle Everett/Mukilteo,8521 Mukilteo Speedway,98275
1140,Mulberry,FL,Best Western Mulberry Hotel,2525 State Road 60 E,33860
1141,Munising,MI,Scotty's Motel,415 Cedar St,49862
1142,Murray,KY,Best Western University Inn,1503 N 12th St,42071
1143,Muskegon,MI,Red Roof Inn & Suites Muskegon Heights,150 S Seaway Dr,49444
1144,Myrtle Beach,SC,Aqua Beach Inn,1301 Withers Dr,29577
1145,Myrtle Beach,SC,Coral Beach Resort and Suites,1105 S Ocean Blvd,29577
1146,Myrtle Beach,SC,Courtyard Myrtle Beach Barefoot Landing,1000 Commons Blvd,29572
1147,Myrtle Beach,SC,Crown Reef Beach Resort and Waterpark,2913 S Ocean Blvd,29577
1148,Myrtle Beach,SC,Dunes Village Resort,5200 N Ocean Blvd,29577
1149,Myrtle Beach,SC,Hampton Inn Myrtle Beach-Northwood,620 75th Ave N,29572
1150,Myrtle Beach,SC,Hilton Garden Inn Myrtle Beach/Coastal Grand Mall,2383 Coastal Grand Cir,29577
1151,Myrtle Beach,SC,Red Parrot Cafe @ Breakers Resort,2006 N Ocean Blvd,29577
1152,Nacogdoches,TX,Best Western Inn of Nacogdoches,3428 South St,75964
1153,Napa,CA,Best Western Plus Inn At The Vines,100 Soscol Ave,94559-4010
1154,Napa,CA,Hampton Inn and Suites Napa,945 Hartle Ct,94559-4191
1155,Napa,CA,Hilton Garden Inn Napa,3585 Solano Avenue,94558-2709
1156,Napa,CA,The Carneros Inn,4048 Sonoma Hwy,94559
1157,Naples,FL,Fairfield Inn & Suites Naples,3808 White Lake Blvd,34117
1158,Naples,FL,Ramada Naples,1100 Tamiami Trl N,34102
1159,Naples,FL,Residence Inn Naples,4075 Tamiami Trl N,34103
1160,Naples,FL,SpringHill Suites Naples,3798 White Lake Blvd,34117
1161,Nashua,NH,Crowne Plaza Hotel Nashua,2 Somerset Pkwy,3063
1162,Nashville,TN,Best Western Suites Near Opryland,201 Music City Cir,37214
1163,Nashville,AR,Budget Inn,620 Mine St,71852
1164,Nashville,TN,Embassy Suites by Hilton Nashville Airport,10 Century Blvd,37214
1165,Nashville,TN,Fiddler's Inn,2410 Music Valley Dr,37214
1166,Nephi,UT,Best Western Paradise Inn of Nephi,1025 S Main St,84648
1167,New Albany,OH,Hampton Inn & Suites New Albany Columbus,5220 Forest Dr,43054
1168,New Braunfels,TX,Heidelberg Lodges,1020 N Houston Ave,78130
1169,New Castle,DE,Hollywood Motel,145 S Dupont Hwy,19720
1170,New Hope,PA,Olivia's Bridge Street Inn,28 W Bridge St,18938
1171,New Orleans,LA,Ace Hotel New Orleans,600 Carondelet St,70130-3511
1172,New Orleans,LA,Aloft New Orleans Downtown,225 Baronne St,70112-1701
1173,New Orleans,LA,Bienville House,320 Decatur St,70130
1174,New Orleans,LA,Cornstalk Hotel,915 Royal St,70116-2701
1175,New Orleans,LA,Econo Lodge,4940 Chef Menteur Hwy,70126-5016
1176,New Orleans,LA,Empress Hotel,1317 Ursulines Ave,70116
1177,New Orleans,LA,French Quarter Suites Hotel,1119 N Rampart St,70116-2434
1178,New Orleans,LA,Hotel Royal,1006 Royal St,70116
1179,New Orleans,LA,Hotel Storyville,1261 Esplanade Ave,70116-1947
1180,New Orleans,LA,MOXY New Orleans Downtown/French Quarter Area,210 O'Keefe Ave,70112
1181,New Orleans,LA,Maison de Macarty,3820 Burgundy St,70117-5708
1182,New Orleans,LA,NOPSI Hotel New Orleans,317 Baronne St,70112-1605
1183,New Orleans,LA,Omni Royal Orleans,621 St. Louis St,70130
1184,New Orleans,LA,Soniat House,1133 Chartres St,70116-2593
1185,New Orleans,LA,The Old No. 77 Hotel & Chandlery,535 Tchoupitoulas St,70130
1186,New Orleans,LA,The Pontchartrain Hotel,2031 Saint Charles Ave,70130-7101
1187,New Orleans,LA,"The Roosevelt New Orleans, A Waldorf Astoria Hotel",130 Roosevelt Way,70112-2502
1188,New Orleans,LA,"The Troubadour Hotel New Orleans, Tapestry Collection by Hilton",1111 Gravier St,70112-1803
1189,New Philadelphia,OH,Americas Best Value Inn New Philadelphia,181 Bluebell Dr SW,44663
1190,New Philadelphia,OH,Best Western Dutch Valley Inn,161 Bluebell Dr SW,44663
1191,New Providence,NJ,Best Western Plus Murray Hill Hotel & Suites,535 Central Ave,7974
1192,New York,NY,Central Park West Hostel,201 W 87th St,10024-2843
1193,New York,NY,Chelsea Savoy Hotel,204 W 23rd St,10011
1194,New York,NY,DoubleTree by Hilton Hotel Metropolitan - New York City,569 Lexington Ave,10022-7562
1195,New York,NY,Four Seasons Hotel New York Downtown,27 Barclay St,10007
1196,New York,NY,"The Beekman, A Thompson Hotel",123 Nassau St,10038-2415
1197,New York,NY,The Broome,431 Broome St,10013
1198,New York,NY,"The Carlyle, A Rosewood Hotel",35 E 76th St,10021-1827
1199,New York,NY,The James New York ‚Äì NoMad,22 East 29th Street,10016
1200,New York,NY,The Maritime Hotel,363 W 16th St,10011
1201,New York,NY,The Nolitan Hotel,30 Kenmare St,10012-4613
1202,New York,NY,The Pearl Hotel,233 West 49th Street,10019
1203,New York,NY,The Redbury New York,29 E 29th St,10016-7902
1204,New York,NY,The St. Regis New York,Two East 55th Street at Fifth Avenue,10022
1205,Newark,DE,Hampton Inn & Suites Wilmington Christiana,1008 Old Churchmans Rd,19713
1206,Newark,NY,Newark Garden Hotel,125 N Main St,14513
1207,Newark,DE,Red Roof Inn & Suites Newark-university,1119 S College Ave,19713
1208,Newark,DE,Red Roof Plus+ Wilmington - Newark,415 Stanton Christiana Rd,19713
1209,Newaygo,MI,M -37 Motel,8372 S Mason Dr,49337
1210,Newburyport,MA,Garrison Inn,11 Brown Sq,1950
1211,Newcastle,WY,Carter Iva,248 E Wentworth St,82701
1212,Newcastle,WY,Hilltop Motel,1121 S Summit Ave,82701
1213,Newington,CT,Siesta Motel,2089 Berlin Tpke,6111
1214,Newport,TN,Holiday Inn Express & Suites Newport South,1022 Cosby Hwy,37821
1215,Newport News,VA,Courtyard Newport News Airport,530 Saint Johns Rd,23602-4509
1216,Newport News,VA,Courtyard by Marriott Newport News Airport,530 Saint Johns Rd,23602
1217,Newport News,VA,Hampton Inn Newport News-Yorktown,151 Ottis St,23602
1218,Niagara Falls,NY,"Quality Hotel & Suites ""At The Falls""",240 First St,14303
1219,Niantic,CT,The Niantic Inn,345 Main St,6357
1220,Niceville,FL,Comfort Suites At Eglin Air Force Base,148 John Sims Pkwy W,32578
1221,Norcross,GA,America's Best Inn Suites,6045 Oakbrook Pkwy,30093
1222,Norfolk,VA,Candlewood Suites Norfolk Airport,5600 Lowery Rd,23502
1223,Norfolk,VA,Motel 6 Norfolk,853 N Military Hwy,23502
1224,Norfolk,NE,Norfolk Country Inn & Suites,1201 S 13th St,68701
1225,Norfolk,VA,SpringHill Suites Norfolk Old Dominion University,4500 Hampton Blvd,23508
1226,Norfolk,VA,SpringHill Suites by Marriott Norfolk Virginia Beach,6350 Newtown Rd,23502
1227,Normal,IL,Baymont Inn Suites Normal Bloomington,6 Traders Cir,61761
1228,North Dartmouth,MA,Best Western Dartmouth Inn,737 State Rd,2747
1229,North Las Vegas,NV,Hampton Inn Las Vegas North Speedway,2852 E Craig Rd,89030
1230,North Platte,NE,Fairfield Inn and Suites North Platte,319 W South River Rd,69101
1231,North Wales,PA,Hampton Inn & Suites Philadelphia Montgomeryville,121 Garden Golf Blvd,19454
1232,Northwood,IA,Holiday Inn Express Suites Northwood,4712 Wheelerwood Rd,50459
1233,Norwalk,CT,Norwalk Inn & Conference Center,99 East Ave,6851
1234,Norwood,CO,The Norwood Inn,1415 Grand Ave,81423
1235,Nottingham,MD,Hampton Baltimore/White Marsh,8225 Town Center Dr,21236
1236,Nottingham,MD,Hampton Inn Baltimore/white Marsh,8225 Town Center Dr,21236
1237,Oakland,CA,Courtyard Oakland Airport,350 Hegenberger Rd,94621
1238,Oakley,KS,Relax Inn,428 Center Ave,67748
1239,Ocean Shores,WA,Sands Resort,801 Ocean Shores Blvd NW,98569
1240,Oceanside,CA,Motel 6,3708 Plaza Dr,92056
1241,Odessa,TX,Hampton Inn Odessa,3923 John Ben Shepperd Pkwy,79762
1242,Ogallala,NE,Quality Inn,201 Chuckwagon Rd,69153
1243,Ogunquit,ME,The Dunes On The Waterfront,518 Main St,3907
1244,Ojai,CA,Hummingbird Inn,1208 E Ojai Ave,93023
1245,Ojai,CA,Ojai Rancho Inn,615 W Ojai Ave,93023
1246,Ojai,CA,The Capri Hotel,1180 E Ojai Ave,93023
1247,Okeechobee,FL,Best Western Lake Okeechobee,3975 Us Highway 441 S,34974
1248,Oklahoma City,OK,"Ambassador Hotel Oklahoma City, Autograph Collection",1200 N Walker Ave,73103
1249,Oklahoma City,OK,Best Western Greentree Inn & Suites,1811 N Moore Ave,73160
1250,Oklahoma City,OK,Bricktown Hotel & Convention Center,2001 E Reno Ave,73117
1251,Oklahoma City,OK,Carlyle Motel,3600 Nw 39th St,73112
1252,Oklahoma City,OK,Courtyard Oklahoma City Northwest,1515 NW Expressway,73118
1253,Oklahoma City,OK,Days Inn Oklahoma City/Moore,8217 S I 35 Service Rd,73149
1254,Oklahoma City,OK,Hampton Inn Suites Oklahoma City Airport,4333 SW 15th St,73108
1255,Oklahoma City,OK,Hilton Garden Inn Oklahoma City-Bricktown,328 E Sheridan Ave,73104
1256,Oklahoma City,OK,Quality Inn Oklahoma City Airport,6300 Terminal Dr,73159
1257,Oklahoma City,OK,Ramada Oklahoma City Near Bricktown,2001 E Reno Ave,73117
1258,Oklahoma City,OK,Wingate By Wyndham Oklahoma City Airport,2001 S Meridian Ave,73108
1259,Olathe,KS,Rodeway Inn Suites,211 N Rawhide Dr,66061
1260,Old Forge,NY,Christy's Motel,2902 State Route 28,13420
1261,Old Orchard Beach,ME,Elmwood Motor Court,183 Saco Ave,4064
1262,Old Orchard Beach,ME,Imperial Waters,18 Imperial St,4064
1263,Old Orchard Beach,ME,Island View Motel,174 E Grand Ave,4064
1264,Old Orchard Beach,ME,Old Colonial Motel,61 W Grand Ave,4064
1265,Old Orchard Beach,ME,Royal Anchor Resort,203 E Grand Ave,4064
1266,Oldsmar,FL,Hampton Inn & Suites Tampa Northwest/oldsmar,4017 Tampa Rd,34677
1267,Olympia,WA,Best Western Plus Lacey Inn & Suites,8326 Quinault Dr NE,98516
1268,Omaha,NE,Best Western Old Mill Inn,650 N 109th Ct,68154
1269,Omaha,NE,Hampton Inn Omaha Midtown-Aksarben Area,1401 S 72nd St,68124
1270,Omaha,NE,Residence Inn Omaha Downtown/Old Market Area,106 S 15th St,68102
1271,Omaha,NE,Staybridge Suites Omaha 80th And Dodge,7825 Davenport St,68114
1272,Omaha,NE,TownePlace Suites Omaha West,10865 W Dodge Rd,68154
1273,Onalaska,WI,Comfort Inn,1223 Crossing Meadows Dr,54650
1274,Onalaska,WI,Hampton Inn Lacrosse/Onalaska,308 Hampton Ct,54650
1275,Ontario,OR,Best Western Inn Suites,251 NE Goodfellow St,97914
1276,Orange,CA,Best Western Orange Plaza,1302 W Chapman Ave,92868
1277,Orange City,IA,Hampton Inn Orange City,914 8th St SE,51041
1278,Orange City,FL,Orange City Motel,725 S Volusia Ave,32763
1279,Orange City,FL,Quality Inn,445 S Volusia Ave,32763
1280,Orangeburg,SC,Hampton Inn Suites Orangeburg,749 Citadel Rd,29118
1281,Orangeburg,SC,Sleep Inn,3689 Saint Matthews Rd,29118
1282,Orlando,FL,Disney's Saratoga Springs Resort & Spa,1960 Broadway,32830
1283,Orlando,FL,DoubleTree by Hilton Hotel Orlando at SeaWorld,10100 International Dr,32821
1284,Orlando,FL,Homewood Suites by Hilton Orlando-Nearest to Univ Studios,5893 American Way,32819
1285,Orlando,FL,Hyatt Regency Grand Cypress,1 Grand Cypress Blvd,32836
1286,Orlando,FL,Hyatt Regency Orlando International Airport,9300 Jeff Fuqua Blvd,32827-4347
1287,Orlando,FL,Loews Portofino Bay Hotel at Universal Orlando,5601 Universal Blvd,32819
1288,Orlando,FL,Microtel Inn & Suites Orlando (Universal Studios),7531 Canada Ave,32819-8274
1289,Orlando,FL,Orlando Continental Plaza Hotel,6825 Visitors Cir,32819
1290,Orlando,FL,Tradewinds Restaurant,6677 Sea Harbor Dr,32821
1291,Ormond Beach,FL,Atlantic Cove,711 S Atlantic Ave,32176
1292,Ormond Beach,FL,Chateau Mar Beach Resort,507 S Atlantic Ave,32176
1293,Osawatomie,KS,Country Vintage Inn,1117 6th St,66064
1294,Oshkosh,WI,Hawthorn Suites By Wyndham Oshkosh,3105 S Washburn St,54904
1295,Oshkosh,WI,Motel 6,1015 S Washburn St,54904
1296,Oxford,ME,Hampton Inn Oxford,151 Main St,4270
1297,Oxford,MS,Hampton Inn Oxford-West,110 Heritage Dr,38655
1298,Oxon Hill,MD,Hampton Inn Suites National HarborAlexandria Area,250 Waterfront St,20745
1299,Palestine,TX,Hampton Inn & Suites Palestine,2700 S Loop 256,75801-6934
1300,Palm Beach,FL,Colony Hotel,155 Hammon Ave,33480
1301,Palm Springs,CA,Best Western Inn At Palm Springs,1633 S Palm Canyon Dr,92264
1302,Palm Springs,CA,Desert Lodge,1177 S Palm Canyon Dr,92264
1303,Palo Alto,CA,Comfort Inn Palo Alto,3945 El Camino Real,94306
1304,Panama City,FL,Buccaneer Beach Motel,711 W Beach Dr,32401
1305,Panama City Beach,FL,The Chateau Motel,12525 Front Beach Rd,32407
1306,Panguitch,UT,Bryce Canyon Motel,308 N Main St,84759
1307,Panhandle,TX,Budget Inn,400 US Highway 60,79068
1308,Paola,KS,Paola Best Western Htl,1600 E Hedge Lane Ct,66071
1309,Park City,UT,Park City Peaks Hotel,2346 Park Ave,84060
1310,Pasadena,CA,Best Western Pasadena Royale,3600 E Colorado Blvd,91107
1311,Pasadena,CA,The Saga Motor Hotel,1633 E Colorado Blvd,91106
1312,Pasco,WA,My Place Hotel-pasco Wa,6830 Rodeo Dr,99301
1313,Paso Robles,CA,The Oaks Hotel,3000 Riverside Ave,93446
1314,Paxton,IL,Paxton Inn Motel,980 W Ottawa Rd,60957
1315,Peabody,MA,Plaza Motel,125 Newbury St,1960
1316,Pebble Beach,CA,The Lodge at Pebble Beach,1700 17 Mile Dr,93953
1317,Pecos,TX,Best Western Plus Swiss Chalet Hotel Suites,141 S Frontage Rd,79772
1318,Pendleton,OR,Working Girls Hotel,17 SW Emigrant Ave,97801
1319,Pensacola,FL,Quality Inn & Suites,7601 Scenic Hwy,32504
1320,Pensacola,FL,Springhill Suites Pensacola,487 Creighton Rd,32504
1321,Pensacola,FL,TownePlace Suites Pensacola,481 Creighton Rd,32504
1322,Peoria,IL,Mark Twain Hotel,225 Ne Adams St,61602
1323,Perry,GA,Days Inn Perry Near Fairgrounds,200 Valley Dr,31069
1324,Perry,GA,Econolodge,102 Valley Dr,31069
1325,Perry,GA,Jameson Inn - Perry,200 Market Place Dr,31069
1326,Perrysburg,OH,Budget Inn,3602 Hanley Rd,43551-9746
1327,Peru,IL,Tourest Motel,16 W Us Highway 6,61354
1328,Petoskey,MI,Econo Lodge South,1859 S US Highway 131,49770
1329,Philadelphia,PA,Aloft Philadelphia Downtown,101 N Broad St,19107-6523
1330,Philadelphia,PA,Embassy Suites by Hilton Philadelphia - Center City,1776 Benjamin Franklin Parkway,19103-1211
1331,Philadelphia,PA,Fairfield Inn Philadelphia Airport,8800 Bartram Ave,19153-3192
1332,Philadelphia,PA,"Home2 Suites By Hilton Philadelphia-Convention Center, Pa",1200 Arch St,19107
1333,Phoenix,AZ,Comfort Inn I-10 West at 51st Ave,5152 W Latham St,85043-1770
1334,Phoenix,AZ,Courtyard Phoenix North/Happy Valley,2029 W Whispering Wind Dr,85085-2870
1335,Phoenix,AZ,FOUND:RE Phoenix,1100 N Central Ave,85004-1817
1336,Phoenix,AZ,Hilton Garden Inn Phoenix Airport,3422 E Elwood St,85040
1337,Phoenix,AZ,Holiday Inn North Phoenix,12027 N 28th Dr,85029-3304
1338,Phoenix,AZ,Hotel 502,502 W Camelback Rd,85013-2202
1339,Phoenix,AZ,La Quinta Inn & Suites Phoenix I-10 West,4929 W McDowell Rd,85035-4105
1340,Phoenix,AZ,Red Roof Inn Phoenix North - Bell Road,17222 N Black Canyon Hwy,85053-2012
1341,Phoenix,AZ,Residence Inn Phoenix North/Happy Valley,2035 W Whispering Wind Dr,85085-2870
1342,Phoenix,AZ,WoodSpring Suites Phoenix I-10 West,1360 N 43rd Ave,85009-3160
1343,Phoenixville,PA,Hilton Garden Inn Valley Forge/Oaks,500 Cresson Blvd,19460
1344,Pico Rivera,CA,Econo Lodge,8477 Telegraph Rd,90660
1345,Pigeon Forge,TN,Hampton Inn Suites Pigeon Forge On The Parkway,2025 Parkway,37863
1346,Pigeon Forge,TN,Microtel Inn Suites by Wyndham Pigeon Forge,2045 Parkway,37863
1347,Pigeon Forge,TN,Quality Inn Suites at Dollywood Lane,3756 Parkway,37863
1348,Pinckneyville,IL,Americas Best Value Inn Suites,5700 State Route 154,62274
1349,Pinedale,WY,Best Western Pinedale Inn,864 W Pine St,82941
1350,Pinetop,AZ,Northwoods Resort,165 E White Mountain Blvd,85935
1351,Pinetop,AZ,PVC at The Roundhouse Resort,5801 Buck Springs Rd,85935
1352,Pineville,NC,Four Points By Sheraton Charlotte-pineville,9705 Leitner Dr,28134
1353,Pineville,NC,Hilton Garden Inn Charlotte Pineville,425 Towne Centre Blvd,28134
1354,Pismo Beach,CA,Beach Comber Inn,541 Cypress St,93449
1355,Pismo Beach,CA,Seacrest Oceanfront Hotel,2241 Price St,93449
1356,Pittsburg,KS,Comfort Inn Suites,4009 Parkview Dr,66762
1357,Pittsburg,KS,Regency Inn Suites,4023 Parkview Dr,66762
1358,Pittsburgh,PA,Hotel Indigo Pittsburgh East Liberty,123 N Highland Ave,15206
1359,Pittsburgh,PA,Hyatt Place Pittsburgh North Shore,260 N Shore Dr,15212
1360,Pittsburgh,PA,Pittsburgh Marriott City Center,112 Washington Pl,15219
1361,Pittsburgh,PA,Wyndham Garden Pittsburgh Airport,1 Industry Ln,15275
1362,Pittsfield,MA,Econo Lodge,16 Cheshire Rd,1201
1363,Pittston,PA,Holiday Inn Express Wilkes-barre/scranton (airport),30 Concorde Dr,18641
1364,Plainview,TX,Budget Inn,2001 W 5th St,79072
1365,Plainview,NY,Four Points by Sheraton Plainview Long Island,333 S Service Rd,11803
1366,Plano,TX,Hyatt Place Dallas Plano,3100 Dallas Pkwy,75093
1367,Plano,TX,NYLO Plano at Legacy,8201 Preston Rd,75024
1368,Platte City,MO,Ramada Platte City KCI Airport,2512 NW Prairie View Rd,64079
1369,Pleasanton,CA,Hyatt House Pleasanton,4545 Chabot Dr,94588
1370,Plymouth Meeting,PA,Courtyard Philadelphia Plymouth Meeting,651 Fountain Rd,19462
1371,Pocomoke City,MD,Econo Lodge,825 Ocean Hwy,21851
1372,Poplar Bluff,MO,Comfort Inn,2582 N Westwood Blvd,63901
1373,Port Allegany,PA,Port Motel,730 N Main St,16743
1374,Port Allen,LA,Ramada Limited - Port Allen,722 Lobdell Hwy,70767
1375,Port Aransas,TX,Americas Best Value Inn - Corpus Christi/Port Aransas,306 S Alister St,78373
1376,Port Aransas,TX,Tarpon Inn,200 E Cotter Ave,78373
1377,Port Arthur,TX,Suburban Extended Stay Hotel,6900 Memorial Blvd,77642
1378,Port Clyde,ME,Ocean House Hotel,870 Port Clyde Rd,4855
1379,Port Richey,FL,Holiday Inn Express & Suites Port Richey,10619 Us 19,34668
1380,Port Royal,SC,Super 8 Port Royal/beaufort,1360 Ribaut Rd,29935
1381,Portage,IN,Best Western Plus-portage Hotel & Suites,6200 US Highway 20,46368
1382,Portage,WI,Days Inn Portage,N5781 State Road 78,53901
1383,Portland,OR,Holiday Inn Express & Suites Portland-Jantzen Beach,2300 N Hayden Island Dr,97217
1384,Portland,OR,Hotel Rose,50 SW Morrison St,97204
1385,Portland,OR,McMenamins Kennedy School,5736 NE 33rd Ave,97211
1386,Portland,ME,Portland Harbor Hotel,468 Fore St,4101
1387,Portland,ME,Portland Regency Hotel & Spa,20 Milk St,4101
1388,Portland,OR,Radisson Hotel-Portland Airport,6233 Ne 78th Ct,97218
1389,Portland,OR,Sheraton Portland Airport Hotel,8235 Northeast Airport Way,97220
1390,Portland,OR,The Benson Hotel,309 SW Broadway,97205
1391,Portland,ME,"The Press Hotel, Autograph Collection",119 Exchange St,4101
1392,Portland,OR,Viking Motel,6701 N Interstate Ave,97217
1393,Portsmouth,OH,Quality Inn Suites,5100 Old Scioto Trl,45662
1394,Post Falls,ID,Silverstone Inn & Suites,3647 W 5th Ave,83854
1395,Prairie du Chien,WI,"Country Inn & Suites By Carlson, Prairie du Chien",1801 Cabelas Ln,53821-8739
1396,Prairie du Chien,WI,Microtel Inn Suites by Wyndham Prairie du Chien,1833 S Marquette Rd,53821
1397,Prairieville,LA,Royal Motel,17797 Airline Hwy,70769
1398,Prescott,AZ,Quality Inn,1105 E Sheldon St,86301
1399,Prescott,AZ,The Grand Highland Hotel,154 S Montezuma St,86303
1400,Prince Frederick,MD,Holiday Inn Express Prince Frederick,355 Merrimac Ct,20678
1401,Princeton,WV,"Country Inn Suites By Carlson, Princeton, WV",111 Halls Ridge Rd,24739
1402,Princeton,IL,Days Inn Princeton,2238 N Main St,61356
1403,Prosser,WA,Barn Motor Inn,490 Wine Country Rd,99350
1404,Pryor,OK,Americas Best Value Inn Pryor,123 S Mill St,74361
1405,Pueblo,CO,Baymont Inn & Suites Pueblo,3626 N Freeway Rd,81008-1033
1406,Pullman,WA,Cougar Land Motel,150 W Main St,99163
1407,Punta Gorda,FL,Four Points by Sheraton Punta Gorda Harborside,33 Tamiami Trl,33950
1408,Puyallup,WA,Crossland Economy Studios Tacoma - Puyallup,2101 N Meridian,98371
1409,Radford,VA,Best Western Radford Inn,1501 Tyler Ave,24141
1410,Rahway,NJ,Best Western Riverview Inn & Suites,1747 Paterson St,7065
1411,Raleigh,NC,Americas Best Value Inn-north Capital,3401 Capital Blvd,27604
1412,Ramsey,NJ,Holiday Inn Express Ramsey-Mahwah,946 State Rt 17,7446
1413,Rancho Cucamonga,CA,Best Western Plus Heritage Inn Rancho Cucamonga/Ontario,8179 Spruce Ave,91730
1414,Rancho Santa Fe,CA,Rancho Valencia Resort Spa,5921 Valencia Cir,92067
1415,Random Lake,WI,Wisconsin -Aire Motel,N535 State Highway 57,53075
1416,Rantoul,IL,Magnuson Hotel Heritage Inn,420 S Murray Rd,61866
1417,Raton,NM,Best Western Plus Raton Hotel,473 Clayton Rd,87740
1418,Raton,NM,Quality Inn,533 Clayton Rd,87740
1419,Rawlins,WY,Rodeway Inn,1500 W Spruce St,82301
1420,Raynham,MA,Quality Inn,164 New State Hwy,2767
1421,Reading,PA,Days Inn Reading Wyomissing,910 Woodland Rd,19610
1422,Reading,PA,Doubletree by Hilton Hotel Reading,701 Penn Street,19601
1423,Red Bluff,CA,Gateway Inn,250 S Main St,96080
1424,Red Feather Lakes,CO,Ramona Lake Cabins,1078 Ramona Dr,80545
1425,Red Oak,TX,Comfort Inn Suites,404 N Interstate 35 Rd,75154
1426,Red River,NM,Lifts West Condominium Hotel,201 W Main St,87558
1427,Red River,NM,Ponderosa Lodge,200 W Main St,87558
1428,Red River,NM,Terrace Towers Lodge,712 W Main St,87558
1429,Redding,CA,Motel 6,1640 Hilltop Dr,96002
1430,Redding,CA,Oxford Suites Redding,1967 Hilltop Dr,96002
1431,Redmond,OR,Best Western Plus Rama Inn,2630 SW 17th Pl,97756
1432,Redmond,OR,Comfort Suites Redmond Airport,2243 SW Yew Ave,97756
1433,Rensselaer,IN,Comfort Suites,8928 W State Road 114,47978
1434,Renton,WA,Larkspur Landing Renton,1701 E Valley Rd,98057
1435,Republic,WA,Klondike Motel,150 N Clark St,99166
1436,Reynoldsburg,OH,Days Inn Columbus East,2100 Brice Rd,43068
1437,Rhinelander,WI,Kafka's Resort,4281 W Lake George Rd,54501
1438,Rialto,CA,Americas Best Value Inn-rialto,425 W Foothill Blvd,92376
1439,Richardson,TX,Residence Inn Dallas Richardson,1040 Waterwood Dr,75082
1440,Richford,VT,Grey Gables Mansion,122 River St,5476
1441,Richland,WA,Courtyard Richland Columbia Point,480 Columbia Point Dr,99352-4373
1442,Richmond,KY,Comfort Suites,2007 Colby Taylor Dr,40475
1443,Richmond,VA,"Country Inn Suites By Carlson, Richmond I-95 South",2401 Willis Rd,23237
1444,Richmond,VA,Econo Lodge,8350 Brook Rd,23227
1445,Richmond,IN,Hampton Inn Suites Richmond,455 Commerce Rd,47374
1446,Richmond,VA,Quality Inn North,801 E Parham Rd,23227
1447,Richmond,VA,Quality Inn Suites,3200 W Broad St,23230
1448,Richmond,VA,Red Roof Inn - Richmond South,4350 Commerce Rd,23234-2240
1449,Ridgecrest,CA,Travel Inn,131 W Upjohn Ave,93555
1450,Ripton,VT,Robert Frost Mountain Cabins,2430 N Branch Rd,5766
1451,Riverside,MO,Argosy Casino Hotel Spa,777 NW Argosy Pkwy,64150
1452,Roanoke,VA,Best Western Plus Inn at Valley View,5050 Valley View Blvd NW,24012
1453,Roanoke,VA,Hampton Inn Roanoke/Hollins - I-81,7922 Plantation Rd,24019
1454,Rochester,NY,Best Western The Inn At Rochester Airport,395 Buell Rd,14624
1455,Rochester,MN,Comfort Inn Suites West - Medical Center,2005 Commerce Dr NW,55901
1456,Rochester,NY,Towpath Motel,2323 Monroe Ave,14618
1457,Rockaway Beach,OR,Silver Sands Oceanfront Motel,215 S Pacific St,97136-9596
1458,Rockford,IL,Alpine Inn,4404 E State St,61108
1459,Rockford,IL,Red Roof Inn Rockford,7434 E State St,61108
1460,Rockford,IL,Staybridge Suites Rockford,633 N Bell School Rd,61107
1461,Rockland,ME,250 Main Hotel,250 Main St,4841
1462,Rocky Mount,NC,"Country Inn & Suites By Carlson, Rocky Mount, NC",672 English Rd,27804
1463,Rohnert Park,CA,Motel 6,6145 Commerce Blvd,94928
1464,Rolla,MO,Quality Inn,1507 Martin Springs Dr,65401
1465,Ronks,PA,Candlelight Inn Bed & Breakfast,2574 Lincoln Hwy E,17572-9771
1466,Rosemead,CA,Flamingo Inn Rosemead,8621 Garvey Ave,91770
1467,Rufus,OR,Tyee Motel,304 E 1st St,97050
1468,Ruidoso,NM,Best Western Plus Ruidoso Inn,97 Camelot Dr,88345
1469,Rush City,MN,Grant House Hotel Eatery,80 W 4th St,55069
1470,Russell,KS,The Lodge At Russell,901 S Fossil St,67665
1471,Russellville,AR,Budget Inn,1206 E Main St,72801
1472,Russellville,AR,Quality Inn,3019 E Parkway Dr,72802
1473,Ruston,LA,Quality Inn,1951 N Service Rd E,71270
1474,Saco,ME,Blue Haven Motor Court,1015 Portland Rd,4072
1475,Saco,ME,Hampton Inn-saco/biddeford,48 Industrial Park Rd,4072
1476,Sacramento,CA,Hyatt Regency Sacramento,1209 L St,95814
1477,Sacramento,CA,Residence Inn Sacramento Airport Natomas,2410 W El Camino Ave,95833
1478,Safford,AZ,Best Western Desert Inn,1391 W Thatcher Blvd,85546
1479,Saginaw,MI,Fairfield Inn Saginaw,5200 Fashion Square Blvd,48604
1480,St. Cloud,MN,Quality Inn,4040 2nd St S,56301
1481,St. Cloud,MN,Super 8 St Cloud,50 Park Ave S,56301
1482,Saint Ignace,MI,The Cedars Motel,2040 I-75 Business Loop,49781
1483,St. Louis,MO,Days Inn St. Louis - Lindbergh Boulevard,3660 S Lindbergh Blvd,63127
1484,St. Louis,MO,Drury Inn Suites St. Louis Convention Center,711 N Broadway,63102
1485,St. Louis,MO,Drury Plaza Hotel St. Louis at the Arch,2 S 4th St,63102
1486,St. Louis,MO,Hampton Inn & Suites St Louis at Forest Park,5650 Oakland Ave,63110
1487,St. Louis,MO,Hampton Inn & Suites St. Louis/South I-55,4200 Mid America Ln,63129-1202
1488,St. Louis,MO,Home2 Suites by Hilton St. Louis/ Forest Park,920 S Taylor Ave,63110
1489,St. Louis,MO,Pear Tree Inn St. Louis Near Union Station,2211 Market St,63103
1490,St. Louis,MO,Residence Inn St. Louis Galleria,8011 Galleria Pkwy,63117
1491,St. Louis,MO,Seven Gables Inn,26 N Meramec Ave,63105
1492,Saint Marys,PA,Best Western Plus Executive Inn,1002 Earth Rd,15857
1493,Salem,OR,Crossland Economy Studios Salem - North,3535 Fisher Rd NE,97305
1494,Salem,VA,La Quinta Inn Roanoke Salem,140 Sheraton Dr,24153-3003
1495,Salem,NH,Red Roof Inn Salem,15 Red Roof Ln,3079
1496,Salem,IN,Salem Motel,1209 W Mulberry St,47167
1497,Salina,KS,America's Best Value Inn,2403 S 9th St,67401
1498,Salina,KS,Best Western Plus Midwest Inn Suites,745 W Schilling Rd,67401
1499,Salina,KS,Log Cabin Motel,440 N Broadway Blvd,67401
1500,Salina,UT,Rodeway Inn,1400 S State St,84654
1501,Salisbury,NC,Comfort Suites,1040 E Innes St,28144
1502,San Antonio,TX,Comfort Suites Alamo/River walk,505 Live Oak,78202
1503,San Antonio,TX,Courtyard San Antonio SeaWorld¬Æ/Lackland,6738 NW Loop 410,78238
1504,San Antonio,TX,Drury Inn Suites San Antonio North Stone Oak,801 N Loop 1604 E,78232
1505,San Antonio,TX,Drury Inn Suites San Antonio Riverwalk,201 N Saint Marys St,78205
1506,San Antonio,TX,Hampton Inn Suites San Antonio-Downtown/Market Square,411 S Flores St,78204
1507,San Antonio,TX,Hyatt Place San Antonio-Northwest/Medical Center,4303 Hyatt Place Dr,78230
1508,San Antonio,TX,La Quinta Inn Suites San Antonio Northwest,11155 W Loop 1604 N,78254
1509,San Diego,CA,Best Western Seven Seas,411 Hotel Cir S,92108-3402
1510,San Diego,CA,Courtyard San Diego Sorrento Valley,9650 Scranton Rd,92121
1511,San Diego,CA,DoubleTree by Hilton Golf Resort San Diego,14455 Penasquitos Dr,92129
1512,San Diego,CA,Fairmont Grand Del Mar,5300 Grand del Mar Ct,92130
1513,San Diego,CA,Hampton San Diego-Kearny Mesa,5434 Kearny Mesa Rd,92111
1514,San Diego,CA,Holiday Inn Express San Diego Sea World - Beach Area,4540 Mission Bay Dr,92109-4919
1515,San Diego,CA,Residence Inn San Diego Central,5400 Kearny Mesa Rd,92111-1303
1516,San Diego,CA,Rodeway Inn San Diego Near Qualcomm Stadium,5399 Adobe Falls Rd,92120-4403
1517,San Diego,CA,SpringHill Suites San Diego Rancho Bernardo/Scripps Poway,12032 Scripps Highlands Dr,92131-5155
1518,San Diego,CA,"The Dana On Mission Bay, BW Premier Collection",1710 W Mission Bay Dr,92109
1519,San Diego,CA,The Westin San Diego Gaslamp Quarter,910 Broadway Cir,92101
1520,San Francisco,CA,Halcyon Hotel,649 Jones St,94102
1521,San Francisco,CA,Hotel Zelos,12 4th St,94103
1522,San Francisco,CA,Hotel Zetta San Francisco,55 5th Street,94103
1523,San Francisco,CA,InterContinental San Francisco,888 Howard St,94103
1524,San Francisco,CA,King George Hotel,334 Mason St,94102
1525,San Francisco,CA,San Francisco Marriott Marquis,780 Mission St,94103
1526,San Francisco,CA,"The Cartwright Hotel - Union Square, BW Premier Collection",524 Sutter St,94102-1102
1527,San Francisco,CA,Wyndham Canterbury at San Francisco,750 Sutter St,94109-6417
1528,San Jose,CA,Four Points by Sheraton San Jose - Silicon Valley,399 Silicon Valley Blvd,95138
1529,San Jose,CA,The Westin San Jose,302 S Market St,95113
1530,San Jose,CA,Wyndham Garden San Jose Silicon Valley,399 Silicon Valley Blvd,95138-1858
1531,San Luis Obispo,CA,El Toro Motel,625 Toro St,93401
1532,San Luis Obispo,CA,Inn At San Luis Obispo,1895 Monterey St,93401
1533,San Luis Obispo,CA,La Cuesta Inn,2074 Monterey St,93401
1534,San Luis Obispo,CA,Sunbeam Motel,1656 Monterey St,93401
1535,San Marcos,TX,Wingate by Wyndham San Marcos,108 N Interstate 35,78666
1536,San Patricio,NM,Hurd La Rinconada Gallery Guest Homes,105 La Rinconada Lane Highway 70 MM 281,88348
1537,San Ramon,CA,San Ramon Marriott,2600 Bishop Dr,94583
1538,Sandston,VA,Hilton Garden Inn Richmond Airport,441 International Center Dr,23150
1539,Sanibel,FL,Sanibel Inn,937 E Gulf Dr,33957
1540,Santa Barbara,CA,Best Western Plus Encina Inn & Suites,2220 Bath St,93105
1541,Santa Barbara,CA,Blue Sands Motel,421 S Milpas St,93103
1542,Santa Barbara,CA,"Brisas del Mar, Inn at the Beach",223 Castillo St,93101
1543,Santa Barbara,CA,The Parkside Inn,424 Por La Mar,93103
1544,Santa Fe,NM,Courtyard Santa Fe,3347 Cerrillos Rd,87507-7207
1545,Santa Fe,NM,Motel 6 Santa Fe - Cerrillos Road South,3695 Cerrillos Rd,87507
1546,Santa Fe,NM,The Pecos Trail Inn,2239 Old Pecos Trl,87505
1547,Santa Monica,CA,Cameo Bar at Viceroy Santa Monica,1819 Ocean Ave,90401
1548,Santa Monica,CA,Sea Shore Motel,2637 Main St,90405
1549,Santa Monica,CA,Shore Hotel,1515 Ocean Ave,90401
1550,Santa Rosa,CA,BEST WESTERN Garden Inn,1500 Santa Rosa Ave,95404
1551,Santee,SC,Comfort Inn Suites,221 Britain St,29142
1552,Santee,SC,Quality Inn Suites,8929 Old Number Six Hwy,29142
1553,Sarasota,FL,Aloft Sarasota,1401 Ringling Blvd,34236
1554,Sarasota,FL,Holiday Inn Sarasota-Airport,8009 15th St E,34243
1555,Sausalito,CA,Hotel Sausalito,16 El Portal,94965
1556,Sausalito,CA,The Gables Inn Sausalito,62 Princess St,94965
1557,Savanna,IL,Savanna Inn & Suites,101 Valley View Dr,61074
1558,Savannah,GA,Best Western Central Inn,45 Eisenhower Dr,31406
1559,Savannah,GA,Comfort Inn Suites Savannah Airport,15 Jay R Turner Dr,31408
1560,Savannah,GA,Comfort Suites Historic District,630 W Bay St,31401
1561,Savannah,TN,Days Inn Savannah,1695 Pickwick St,38372
1562,Savannah,GA,Holiday Inn Savannah Historic District,520 W Bryan St,31401
1563,Schellsburg,PA,Shawnee Motel,3913 Pitt St,15559
1564,Schiller Park,IL,Four Points By Sheraton Chicago O'hare Airport,10249 Irving Park Rd,60176
1565,Scottsdale,AZ,Courtyard by Marriott Scottsdale Salt River,5201 N Pima Rd,85250
1566,Scottsdale,AZ,Motel 6 Scottsdale,6848 E Camelback Rd,85251
1567,Scranton,PA,Microtel Inn & Suites By Wyndham Dickson City/scranton,232 Main St,18519
1568,Searcy,AR,Heritage Inn,907 E Market Ave,72149
1569,Seattle,WA,Bed and Breakfast Inn Seattle,1808 E Denny Way,98122-2812
1570,Seattle,WA,Courtyard Seattle Downtown/Lake Union,925 Westlake Ave N,98109-3524
1571,Seattle,WA,Hyatt House Seattle/Downtown,201 5th Ave N,98109-5093
1572,Seattle,WA,Inn at El Gaucho,2505 1st Ave,98121-1302
1573,Seattle,WA,Maxwell Hotel,300 Roy St,98109
1574,Seattle,WA,Residence Inn Seattle Downtown/Lake Union,800 Fairview Ave N,98109-4412
1575,Seattle,WA,Silver Cloud Inn - Seattle Lake Union,1150 Fairview Ave N,98109-4433
1576,Seattle,WA,The Roosevelt Hotel,1531 7th Ave,98101
1577,Seattle,WA,Warwick Seattle Hotel,401 Lenora St,98121
1578,Secaucus,NJ,Holiday Inn Secaucus Meadowlands,300 Plaza Dr,7094
1579,Secaucus,NJ,Meadowlands Plaza Hotel,40 Wood Ave,7094
1580,Sedona,AZ,Best Western Plus Arroyo Roble Hotel & Creekside Villas,400 N State Route 89A,86336
1581,Sedona,AZ,Days Inn Kokopelli Sedona,6465 State Route 179,86351
1582,Sedona,AZ,Wildflower Inn,6086 State Route 179,86351
1583,Sequim,WA,Quality Inn Suites At Olympic National Park,134 River Rd,98382
1584,Sevierville,TN,Days Inn Apple Valley Sevierville,1841 Parkway,37862
1585,Sevierville,TN,Sleep Inn,1020 Parkway,37862
1586,Seward,NE,Cobblestone Hotel Suites,2575 Progressive Rd,68434
1587,Shamrock,TX,Shamrock Country Inn,711 E 12th St,79079
1588,Shawnee,OK,Quality Inn,4900 N Harrison St,74804
1589,Sheboygan,WI,Blue Harbor Resort,725 Blue Harbor Dr,53081
1590,Shelbyville,MI,Bay Pointe Inn Restaurant,11456 Marsh Rd,49344
1591,Shell,WY,The Hideout Lodge Guest Ranch,3170 Road 40 12,82441
1592,Sidney,MT,Park Plaza Motel,601 S Central Ave,59270
1593,Sierra Vista,AZ,Quality Inn,1631 S Highway 92,85635
1594,Sikeston,MO,Best Western Plus Sikeston,120 S Interstate Dr,63801
1595,Sikeston,MO,Drury Inn Suites Sikeston,2608 E Malone Ave,63801
1596,Washington DC,WA,DoubleTree by Hilton Hotel Washington DC - Silver Spring,8727 Colesville Rd,20910
1597,Silverdale,WA,Oxford Suites Silverdale,9550 Silverdale Way NW,98383
1598,Silverton,CO,Grand Imperial Hotel,1219 Greene St,81433
1599,Simpsonville,SC,Hampton Inn Greenville/simpsonville,3934 Grandview Dr,29680
1600,Sioux City,IA,Hampton Inn Suites Sioux City/South,5555 Sergeant Rd,51106
1601,Sioux City,IA,New Victorian Inn Suites Sioux City,3101 Singing Hills Blvd,51106
1602,Sioux City,IA,Quality Inn Suites,4230 S Lakeport St,51106
1603,Sioux Falls,SD,Best Western Empire Towers,4100 W Shirley Pl,57106
1604,Sioux Falls,SD,Comfort Inn Suites,3721 W Avera Dr,57108
1605,Sioux Falls,SD,Comfort Suites,3208 S Carolyn Ave,57106
1606,Sioux Falls,SD,Courtyard by Marriott Sioux Falls,4300 West Empire Place,57106
1607,Sioux Falls,SD,Holiday Inn Express & Suites Sioux Falls At Empire Mall,2501 S Shirley Ave,57106
1608,Sioux Falls,SD,Holiday Inn Express & Suites Sioux Falls Southwest,3821 W Avera Dr,57108
1609,Sister Bay,WI,Bluffside Motel,10641 Bluffside Rd,54234
1610,Sister Bay,WI,Nordic Lodge,2721 Nordic Dr,54234
1611,Slate Run,PA,Hotel Manor,392 Slate Run Rd,17769
1612,Smyrna,GA,Country Inn&Suites By Carlson,2175 Church Rd Se,30080
1613,Solvang,CA,Solvang Inn Cottages,1518 Mission Dr,93463
1614,Somers Point,NJ,Budget Inn,715 New Rd,8244
1615,Somerset,KY,Americas Best Value Inn,125 N Highway 27,42503
1616,Somerset,NJ,Candlewood Suites Somerset,41 Worlds Fair Dr,8873
1617,South Bend,IN,Americas Best Value Inn,425 N Dixie Way,46637-3313
1618,South Haven,MI,Comfort Suites,1755 Phoenix St,49090
1619,South Haven,MI,Hotel Nichols,201 Center St,49090
1620,South Lake Tahoe,CA,Basecamp Hotel,4143 Cedar Ave,96150
1621,South Lake Tahoe,CA,Inn by the Lake,3300 Lake Tahoe Blvd,96150
1622,South Lake Tahoe,CA,Lodge At Lake Tahoe,3840 Pioneer Trl,96150
1623,Southaven,MS,Comfort Suites,7075 Moore Dr,38671
1624,Southaven,MS,Hampton Inn Memphis/Southaven,390 Goodman Rd W,38671
1625,Southfield,MI,Red Roof Inn Detroit - Southfield,27660 Northwestern Hwy,48034
1626,Spartanburg,SC,Clevedale Historic Inn And Gardens,1050 Willis Rd,29301
1627,Spartanburg,SC,Crossland Economy Studios Spartanburg - Asheville Hwy.,130 Mobile Dr,29303
1628,Spearfish,SD,Best Western Black Hills Lodge,540 E Jackson Blvd,57783
1629,Speculator,NY,Lake Pleasant Lodge,2839 State Route 30,12164
1630,Spokane,WA,Fairfield Inn & Suites Spokane Downtown,311 N Riverpoint Blvd,99202
1631,Springdale,AR,Hampton Inn Suites Springdale,1700 S 48th St,72762
1632,Springfield,OH,Baymont Inn & Suites Springfield,319 E Leffel Ln,45505
1633,Springfield,MO,Best Western Plus Springfield Airport Inn,4445 W Chestnut Expy,65802
1634,Springfield,MO,Best Western Route 66 Rail Haven,203 S Glenstone Ave,65802
1635,Springfield,VA,Best Western Springfield,6721 Commerce St,22150
1636,Springfield,VA,Comfort Inn,6560 Loisdale Ct,22150
1637,Springfield,VA,"Extended Stay America Washington, D.C. - Springfield",6800 Metropolitan Center Dr,22150
1638,Springfield,MA,Hampton Inn & Suites Springfield/Downtown,851 E Columbus Ave,1105
1639,Springfield,OH,Hampton Inn Springfield,101 W Leffel Ln,45505
1640,Springfield,MO,Hampton Inn Springfield South,3232 S. Glenstone,65804
1641,Washington DC,WA,Holiday Inn Express Washington Dc Sw - Springfield,6401 Brandon Ave,22150
1642,Springfield,IL,Residence Inn Springfield South,2915 Stanford Ave,62703
1643,Springfield,CO,Stage Stop Hotel,1033 Main St,81073
1644,Springfield,MO,hampton inn Springfield southeast,3370 E Montclair St,65804
1645,Suffolk,VA,Comfort Suites Suffolk - Chesapeake,5409 Plummer Blvd,23435
1646,Suffolk,VA,Hilton Garden Inn Chesapeake/Suffolk,5921 Harbour View Blvd,23435
1647,Suffolk,VA,TownePlace Suites by Marriott Suffolk Chesapeake,8050 Harbour View Blvd,23435
1648,Sugar Land,TX,Hyatt Place Houston/Sugar Land,16730 Creek Bend Dr,77478
1649,Suitland,MD,Hampton Inn Suites Camp Springs/Andrews AFB,5000 Mercedes Blvd,20746
1650,Sulphur,LA,Best Western Plus Executive Hotel Suites,1200 Pintail St,70665
1651,Sulphur,LA,Hampton Inn Sulphur/Lake Charles Area,210 Henning Dr,70663
1652,Summersville,WV,Econo Lodge,1203 Broad St,26651
1653,Summersville,WV,Sleep Inn,701 Professional Park Dr,26651
1654,Summerville,SC,Sleep inn,115 Holiday Dr,29483
1655,Sunnyvale,CA,Courtyard Sunnyvale Mountain View,660 W El Camino Real,94087
1656,Sunnyvale,CA,Vagabond Inn Sunnyvale,816 W Ahwanee Ave,94085
1657,Superior,WI,The Bay Motel,306 E 3rd St,54880-6807
1658,Sutter Creek,CA,Hotel Sutter,53 Main St,95685
1659,Sylva,NC,Comfort Inn,1235 E Main St,28779
1660,Sylva,NC,Economy Inn,940 W Main St,28779
1661,Tacoma,WA,Holiday Inn Express & Suites Tacoma Downtown,2102 S C St,98402
1662,Tallahassee,FL,Governor's Inn,209 S Adams St,32301
1663,Tallahassee,FL,Hilton Garden Inn Tallahassee Central,1330 Blairstone Rd,32301
1664,Tallahassee,FL,Home2 Suites by Hilton Tallahassee State Capitol,210 S Magnolia Dr,32301
1665,Tallahassee,FL,Quality Inn Suites,6737 Mahan Dr,32308
1666,Tallahassee,FL,Red Roof Inn Tallahassee,2930 Hospitality St,32303
1667,Tampa,FL,Baymont Inn & Suites Tampa near Busch Gardens / USF,3001 University Center Dr,33612
1668,Tampa,FL,Chase Suite Hotel Tampa,3075 N Rocky Point Dr E,33607
1669,Tampa,FL,Comfort Suites Tampa / Brandon,9932 E Adamo Dr,33619
1670,Tampa,FL,Grand Hyatt Tampa Bay,2900 Bayport Dr,33607
1671,Tampa,FL,Hilton Garden Inn Tampa East/brandon,10309 Highland Manor Dr,33610
1672,Tampa,FL,Holiday Inn Hotel & Suites Tampa North-busch Gardens Area,11310 N 30th St,33612
1673,Tampa,FL,Jayhawk Motel,3415 N Nebraska Ave,33603
1674,Tarpon Springs,FL,Quality Inn & Suites,38724 US Highway 19 N,34689
1675,Tarzana,CA,St George Motor Inn,19454 Ventura Blvd,91356
1676,Tavares,FL,Best Western Plus Lake County Inn & Suites,1380 E Burleigh Blvd,32778
1677,Temecula,CA,Best Western Country Inn,27706 Jefferson Ave,92590
1678,Temecula,CA,The INN at Europa Village,33350 LA Serena Way,92591
1679,Terre Haute,IN,Quality Inn,555 S 3rd St,47807
1680,Texarkana,AR,Americas Best Value Inn Texarkana,4200 N State Line Ave,71854
1681,Texarkana,AR,Comfort Suites-Texarkana,5420 Crossroads Pkwy,71854
1682,Texarkana,AR,Hampton Inn Texarkana Arkansas,5302 Crossroads Pkwy,71854
1683,Texarkana,TX,Motel 6 Texarkana TX,1924 Saint Michael Dr,75503
1684,Thomaston,GA,Econo Lodge,1207 Highway 19 N,30286
1685,Thomson,GA,Econo Lodge,130 N Seymour Dr,30824
1686,Thorp,WI,Heritage Court Motel,100 S Washington St,54771
1687,Tidioute,PA,Landmark Hotel,99 Main St,16351
1688,Tilton,NH,Econo Lodge Inn Suites,650 Laconia Rd,3276
1689,Tilton,NH,Rodeway Inn,788 Laconia Rd,3276
1690,Titusville,PA,Caboose Motel,407 S Perry St,16354
1691,Titusville,FL,Three Oaks Motel,707 S Hopkins Ave,32780
1692,Tokeland,WA,Tokeland Hotel,100 Hotel Rd,98590
1693,Tolleson,AZ,Best Western Tolleson Hotel,8421 W Mcdowell Rd,85353
1694,Tomah,WI,Best Western Tomah Hotel,1017 E McCoy Blvd,54660
1695,Tomah,WI,Hampton Inn Tomah,219 Buan Ave,54660
1696,Topping,VA,Pilot House Inn,2737 Greys Point Rd,23169
1697,Tracy,CA,Best Western Luxury Inn,811 Clover Rd,95376
1698,Tracy,CA,Fairfield Inn Tracy,2410 Naglee Rd,95304
1699,Traverse City,MI,Comfort Inn Traverse City,460 Munson Ave,49686
1700,Trinidad,CO,Days Inn & Suites Trinidad,900 W Adams St,81082-3616
1701,Troy,OH,Comfort Suites,1800 Towne Park Dr,45373
1702,Troy,OH,Quality Inn Troy,1375 W State Route 55,45373
1703,Truro,MA,Hostelling International Truro,111 N. Pamet Rd,2666
1704,Tualatin,OR,Century Hotel,8185 Sw Tualatin Sherwood Rd,97062
1705,Tucson,AZ,Flamingo Suites,401 W Lavery Ln,85704
1706,Tullahoma,TN,Baymont Inn Suites - Tullahoma,2113 N Jackson St,37388
1707,Tulsa,OK,Comfort Inn Midtown,4530 E Skelly Dr,74135
1708,Tulsa,OK,Desert Hills Motel,5220 E 11th St,74112
1709,Tulsa,OK,Economy Inn,5609 W Skelly Dr,74107
1710,Tulsa,OK,Hampton Inn & Suites Tulsa South-bixby,8220 E Regal Pl,74133
1711,Tulsa,OK,Holiday Inn Express Tulsa-Woodland Hills,9010 E 71st St,74133
1712,Tulsa,OK,Renaissance Tulsa Hotel & Convention Center,6808 South 107th East Avenue,74133
1713,Tulsa,OK,Sleep Inn & Suites Central/I-44,8021 E 33rd St,74145
1714,Tupelo,MS,Best Western Plus Tupelo Inn & Suites,3158 N Gloster St,38804
1715,Tupelo,MS,Holiday Inn Express & Suites Tupelo,1612 McClure Cv,38804
1716,Tupper Lake,NY,Tupper Lake Motel,255 Park St,12986
1717,Twentynine Palms,CA,Best Western Gardens Hotel At Joshua Tree National Park,71487 Twentynine Palms Hwy,92277
1718,Twin Mountain,NH,Carroll Motel Cottages,73 Route 3 S,3595
1719,Tybee Island,GA,Royal Palm Motel,909 Butler Ave,31328
1720,Tyler,TX,Fairfield Inn Suites Tyler,1945 W Southwest Loop 323,75701
1721,Tyler,TX,Hawthorn Suites By Wyndham Tyler,3303 Troup Hwy,75701
1722,Tyler,TX,Sleep Inn Suites Tyler South,5555 Donnybrook Ave,75703
1723,Ukiah,CA,Best Western Orchard Inn,555 S Orchard Ave,95482
1724,Union City,CA,Hampton Inn Union City,31040 Alvarado Niles Rd,94587
1725,Union Dale,PA,The Herrick Lodge,9207 State Route 171,18470
1726,Urbana,IL,Hampton Inn Champaign Urbana,1200 W University Ave,61801
1727,Urbana,IL,Ramada Urbana/champaign,902 W Killarney St,61801
1728,Urbana,IA,Urbana Inn & Suites,5369 Hutton Dr,52345
1729,Urbana,IL,Urbana Landmark Hotel,210 S Race St,61801
1730,Vail,CO,Austria Haus Hotel,242 E Meadow Dr,81657
1731,Vail,CO,Vail Racquet Club Mountain Resort,4695 Racquet Club Dr,81657
1732,Valencia,CA,Best Western-valencia Inn,27413 Wayne Mills Pl,91355
1733,Valencia,CA,Hyatt Regency-valencia,24500 Town Center Dr,91355
1734,Vallejo,CA,Best Western Inn & Suites At Discovery Kingdom,1596 Fairgrounds Dr,94589
1735,Van Buren,AR,Sleep Inn & Suites Van Buren,1633 N 12th Ct,72956
1736,Vancouver,WA,Hampton Inn Suites PortlandVancouver,315 SE Olympia Dr,98684
1737,Vancouver,WA,Residence Inn Portland North / Vancouver,8005 NE Parkway Dr,98662
1738,Vandalia,OH,Super 8 Vandalia/dayton International Airport,550 E National Rd,45377
1739,Verona,NY,Inn At Turning Stone Casino,5558 W Main St,13478
1740,Vicksburg,MS,Econo Lodge,3959 Clay St,39183
1741,Victor,NY,Hampton Inn & Suites Rochester/Victor,7637 New York State Route 96,14564
1742,Vienna,VA,Residence Inn Tysons Corner,8616 Westwood Center Dr,22182-2214
1743,Vineland,NJ,EconoLodge,998 W Landis Ave,8360
1744,Vinton,LA,Best Western Casino Inn,2466 Toomey Rd,70668
1745,Virginia Beach,VA,Best Western Plus Virginia Beach,2809 Atlantic Ave,23451
1746,Virginia Beach,VA,Comfort Inn Suites Virginia Beach Oceanfront,2015 Atlantic Ave,23451
1747,Virginia Beach,VA,Fairfield Inn and Suites by Marriott Virginia Beach Oceanfront,1901 Atlantic Avenue,23451
1748,Virginia Beach,VA,Hampton Inn Norfolk/Virginia Beach,5793 Greenwich Rd,23462
1749,Virginia Beach,VA,Homewood Suites by Hilton Virginia Beach/Norfolk Airport,5733 Cleveland St,23462
1750,Virginia Beach,VA,La Quinta Inn Norfolk Virginia Beach,192 Newtown Rd,23462
1751,Virginia Beach,VA,Magnuson Hotel Norfolk Airport,5708 Northampton Blvd,23455
1752,Virginia Beach,VA,Ocean Sands Resort,2207 Atlantic Ave,23451
1753,Virginia Beach,VA,SpringHill Suites by Marriott Virginia Beach Oceanfront,901 Atlantic Avenue,23451
1754,Virginia Beach,VA,Virginia Beach Resort Hotel Conference Center,2800 Shore Dr,23451
1755,Virginia Beach,VA,WoodSpring Suites Virginia Beach,4800 Alicia Dr,23462
1756,Vista,CA,Sonoran Suites of San Diego,1850 Thibodo Rd,92081-7563
1757,Waco,TX,Quality Inn Suites Near University,2410 S New Rd,76711
1758,Waldorf,MD,Residence Inn By Marriott Waldorf,3020 Technology Pl,20601
1759,Wall,SD,Sunshine Inn,608 Main St,57790
1760,Walla Walla,WA,BEST WESTERN PLUS Walla Walla Suites Inn,7 E Oak St,99362
1761,Walla Walla,WA,Quality Inn Suites,520 N 2nd Ave,99362
1762,Wallace,ID,The Stardust Motel,410 Pine St,83873
1763,Walterboro,SC,Best Western Of Walterboro,1428 Sniders Hwy,29488
1764,Waltham,MA,Crescent Suites & Hotel,287 Crescent St,2453
1765,Wapakoneta,OH,Best Western Wapakoneta Inn,1008 Lunar Dr,45895
1766,Warner Robins,GA,Comfort Suites,3101 Watson Blvd,31093
1767,Warner Robins,GA,La Quinta Inn Suites Warner Robins - Robins AFB,4080 Watson Blvd,31093
1768,Washington,PA,America's Best Value Inn,1385 W Chestnut St,15301
1769,Washington,PA,Comfort Inn & Suites,2110 N Franklin Dr,15301
1770,Watertown,SD,Best Western Ramkota Hotel,1901 9th Ave SW,57201
1771,Watertown,NY,Rodeway Inn,652 Arsenal St,13601
1772,Waterville Valley,NH,Best Western Silver Fox Inn,70 Packard's Rd,3215
1773,Watkins Glen,NY,Budget Inn,435 S Franklin St,14891
1774,Wauchula,FL,Tropicana Motel,1211 Us Highway 17 N,33873
1775,Weatherford,OK,Americas Best Value Inn-weatherford,2016 W Eagle Rd,73096
1776,Webster,TX,Holiday Inn Express & Suites Houston Space Ctr - Clear Lake,900 Rogers St,77598
1777,Weedsport,NY,Rodeway Inn,2709 Erie Dr,13166
1778,Welches,OR,Whispering Woods Resort,67800 E Nicklaus Way,97067
1779,West Branch,MI,Quality Inn,2980 Cook Rd,48661
1780,West Chester,PA,Hotel Warner,120 N High St,19380
1781,West Des Moines,IA,Hampton Inn Suites West Des Moines/SW Mall Area,6160 Mills Civic Pkwy,50266
1782,West Fargo,ND,Element Fargo,925 19th Ave E,58078
1783,West Hollywood,CA,The London West Hollywood,1020 N San Vicente Blvd,90069
1784,West Hollywood,CA,The London West Hollywood at Beverly Hills,1020 North San Vicente Boulevard,90069-3802
1785,West Memphis,AR,Relax Inn,2407 S Service Rd,72301
1786,West Middlesex,PA,Park Inn By Radisson Sharon,3377 New Castle Rd,16159
1787,West Palm Beach,FL,Hampton Inn West Palm Beach Central Airport,1601 Worthington Rd,33409
1788,West Palm Beach,FL,Hotel Evernia,609 Evernia St,33401
1789,West Palm Beach,FL,Hyatt Place West Palm Beach/Downtown,295 Lakeview Ave,33401
1790,West Springfield,MA,Best Western Springfield West Inn,429 Riverdale St,1089
1791,West Springfield,PA,Sunset Motel,13825 Ridge Rd,16443
1792,Westbury,NY,Courtyard by Marriott Westbury Long Island,1800 Privado Road,11590
1793,Westbury,NY,Red Roof Plus+ Long Island-garden City,699 Dibblee Dr,11590
1794,Westfield,NJ,BEST WESTERN Westfield Inn,435 North Ave W,7090
1795,Westfield,NY,Theater Motel,7592 E Route 20,14787
1796,Westmont,IL,Clubhouse Oakbrook Inn & Suites,630 Pasquinelli Dr,60559
1797,Westport,WA,Harbor Resort,871 E Neddy Rose Dr,98595
1798,Westport,CT,The Westport Inn,1595 Post Rd E,6880
1799,Wheelersburg,OH,Comfort Inn,8226 Ohio River Rd,45694
1800,Wheelersburg,OH,Days Inn Wheelersburg Portsmouth,8340 Ohio River Rd,45694
1801,Whippany,NJ,Hyatt House Parsippany/Whippany,1 Ridgedale Ave N,7981
1802,White Haven,PA,Econo Lodge Inn & Suites,981 State Route 940,18661
1803,White House,TN,Holiday Inn Express White House,206 Knight Cir,37188
1804,Wichita,KS,Best Western Governors Inn & Suites,4742 S Emporia St,67216-1771
1805,Wichita,KS,Hilton Garden Inn Wichita,2041 N Bradley Fair Pkwy,67206
1806,Wichita Falls,TX,Comfort Inn,1317 Kenley Ave,76306
1807,Wickenburg,AZ,My Place Suites,401 W Apache St,85390
1808,Wilbraham,MA,Wilbraham Inn,2009 Boston Rd,1095
1809,Wilburton,OK,Hiway Inn Express,605 W Main St,74578
1810,Williams,AZ,Rodeway Inn Suites Downtowner-Rte 66,201 E Route 66,86046
1811,Williamsburg,VA,"Bluegreen Parkside Williamsburg, Ascend Resort Collection",1827 Merrimac Trail,23185
1812,Williamsburg,VA,"Bluegreen Vacations Patrick Henry Sqr, Ascend Resort Collection",249 York Street,23185
1813,Williamsburg,VA,Hampton Inn and Suites Williamsburg-Central,718 Bypass Road,23185
1814,Williamsburg,VA,Hilton Garden Inn Williamsburg,1624 Richmond Road,23185
1815,Williamsport,MD,"Red Roof Inn Hagerstown Williamsport,",310 E Potomac St,21795
1816,Williston,ND,Best Western Plus Williston Hotel & Suites,4201 4th Ave West,58801
1817,Willits,CA,Pine Cone Motel,1350 S Main St,95490
1818,Wilmington,NC,Best Western Plus Wilmington/Carolina Beach,5600 Carolina Beach Rd,28412
1819,Winchester,VA,Comfort Inn,1601 Martinsburg Pike,22603
1820,Winchester,VA,Hilton Garden Inn Winchester,120 Wingate Dr,22601
1821,Windham,NY,Cave Mountain Motel,10978 State Route 23,12496
1822,Windsor,CA,Holiday Inn Express Windsor Sonoma Wine Country,8865 Conde Ln,95492
1823,Winfield,KS,Liberty Inn,601 W 9th Ave,67156
1824,Winnfield,LA,The Winnfield Lodge,700 W Court St,71483
1825,Wisconsin Dells,WI,Alakai Hotel & Suites,1030 Wisconsin Dells Pkwy,53965
1826,Wisconsin Dells,WI,Baker's Sunset Bay Resort,921 Canyon Rd,53965
1827,Wisconsin Dells,WI,Best Western Ambassador Inn & Suites,610 S Frontage Rd,53965
1828,Wisconsin Dells,WI,Deer Trail Motel,1234 River Rd,53965
1829,Wisconsin Dells,WI,Diamond Hotel,1630 Wisconsin Dells Pkwy,53965
1830,Wisconsin Dells,WI,Indian Trail Motel,1013 Broadway,53965
1831,Wisconsin Dells,WI,Top Hat Motel,812 River Rd,53965
1832,Wisconsin Dells,WI,Trails End Motel,1116 Broadway,53965
1833,Wisconsin Dells,WI,Wilderness On The Lake,350 E Hiawatha Dr,53965
1834,Woburn,MA,Courtyard Boston Woburn/Boston North,700 Unicorn Park Dr,1801
1835,Woodbridge,VA,Hampton Inn Potomac Mills/Woodbridge,1240 Annapolis Way,22191
1836,Woodstock,IL,Best Western-woodstock Inn,990 Lake Ave,60098
1837,Woodstock,VA,Hampton Inn & Suites Woodstock Va,1150 Motel Dr,22664
1838,Worland,WY,Comfort Inn,100 N Road 11,82401
1839,Wytheville,VA,Budget Host Inn,705 Chapman Rd,24382
1840,Wytheville,VA,Comfort Inn,2594 E Lee Hwy,24382
1841,Wytheville,VA,Days Inn - Wytheville,150 Malin Dr,24382
1842,Wytheville,VA,Quality Inn Suites,2015 E Main St,24382
1843,Wytheville,VA,Super 8-wytheville,130 Nye Cir,24382
1844,Yachats,OR,Fireside Motel,1881 Highway 101 N,97498
1845,Yakutat,AK,Yakutat Lodge,111 Airport Rd,99689
1846,Yellow Springs,OH,Mills Park Hotel,321 Xenia Ave,45387
1847,York,PA,Motel 6 York North,125 Arsenal Rd,17404
1848,Youngstown,OH,Red Roof Inn Boardman,1051 Tiffany S,44514
1849,Youngstown,OH,Rodeway Inn,4250 Belmont Ave,44505
1850,Yountville,CA,Bardessono,6526 Yount St,94599
1851,Yuba City,CA,Best Western Yuba City Inn,894 W Onstott Frontage Rd,95991
1852,Yuma,AZ,Arizona Inn Suites,2655 S 4th Ave,85364
1853,Yuma,AZ,Hilton Garden Inn Yuma Pivot Point,310 N Madison Ave,85364
